{"name":"North Vancouver","other_names":{"name:be":"Норт-Ванкувер","name:ru":"Норт-Ванкувер","name:ckb":"باکووری ڤانکوڤەر","name:zh-Hans":"北温哥华","name:zh-Hant":"北溫哥華","official_name":"City of North Vancouver"},"display_name":"North Vancouver, Metro Vancouver Regional District, British Columbia, Canada","address":{"city":"North Vancouver","county":"Metro Vancouver Regional District","state":"British Columbia","ISO3166-2-lvl4":"CA-BC","country":"Canada","country_code":"ca"},"population":48200,"osm_type":"relation","osm_id":1524228,"type":"administrative","location":[-123.0737925,49.3206294],"bbox":[-123.1026766,49.295636,-123.038138,49.3357132]}
{"name":"West Kelowna","display_name":"West Kelowna, Regional District of Central Okanagan, British Columbia, Canada","address":{"city":"West Kelowna","county":"Regional District of Central Okanagan","state":"British Columbia","ISO3166-2-lvl4":"CA-BC","country":"Canada","country_code":"ca"},"population":36078,"osm_type":"relation","osm_id":2221799,"type":"administrative","location":[-119.582876,49.8585784],"bbox":[-119.7266019,49.7881267,-119.5112063,49.9452394]}
{"name":"Edmonton","other_names":{"name:de":"Edmonton","name:en":"Edmonton","name:es":"Edmonton","name:fr":"Edmonton","name:it":"Edmonton","name:ar":"إدمونتون","name:cr":"ᐊᒥᐢᑿᒌᐚᐢᑲᐦᐃᑲᐣ","name:eu":"Edmonton","name:ja":"エドモントン市","name:ko":"에드먼턴","name:ru":"Эдмонтон","name:uk":"Едмонтон","name:bla":"Omahkoyisi","name:chp":"Kuę́ Nedhé","name:srs":"Nasagachoo","name:sto":"Tiʔoda","name:yue":"愛民頓","name:cr-Latn":"Amiskwacîwâskahikan","name:ja-Latn":"Edomonton-shi","name:ko-Latn":"Edeumeonteon","name:zh-Hant":"埃德蒙頓市","name:zh-Latn-pinyin":"Āidéméngdùn-shì"},"display_name":"Edmonton, Division No. 11, Alberta, Canada","address":{"city":"Edmonton","county":"Division No. 11","state":"Alberta","ISO3166-2-lvl4":"CA-AB","country":"Canada","country_code":"ca"},"population":1,"osm_type":"relation","osm_id":2564500,"type":"city","location":[-113.491241,53.5462055],"bbox":[-113.7138411,53.3372558,-113.2714783,53.7162646]}
{"name":"Regina","other_names":{"name:ar":"ريجينا","name:en":"Regina","name:ku":"Rêcîna","name:ru":"Реджайна","name:ckb":"ڕێجینا","name:pronunciation":"rɛ'dʒaɪnə"},"display_name":"Regina, Division No. 6, Saskatchewan, Canada","address":{"city":"Regina","county":"Division No. 6","state":"Saskatchewan","ISO3166-2-lvl4":"CA-SK","country":"Canada","country_code":"ca"},"population":215106,"osm_type":"relation","osm_id":4263150,"type":"administrative","location":[-104.61731,50.44876],"bbox":[-104.7781055,50.3964112,-104.492066,50.5207302]}
{"name":"Prince Albert","other_names":{"name:en":"Prince Albert","name:ru":"Принс-Альберт","name:uk":"Принс-Альберт"},"display_name":"Prince Albert, Division No. 15, Saskatchewan, Canada","address":{"city":"Prince Albert","county":"Division No. 15","state":"Saskatchewan","ISO3166-2-lvl4":"CA-SK","country":"Canada","country_code":"ca"},"population":35129,"osm_type":"relation","osm_id":5217092,"type":"administrative","location":[-105.748901,53.201097],"bbox":[-105.8171882,53.1693395,-105.5370126,53.2633455]}
{"name":"Winkler","other_names":{"name:uk":"Вінклер"},"display_name":"Winkler, Division No. 3, Manitoba, Canada","address":{"city":"Winkler","county":"Division No. 3","state":"Manitoba","ISO3166-2-lvl4":"CA-MB","country":"Canada","country_code":"ca"},"population":10670,"osm_type":"relation","osm_id":12377394,"type":"administrative","location":[-97.937622,49.187089],"bbox":[-97.972201,49.1627716,-97.9087753,49.1999741]}
{"name":"Morden","display_name":"Morden, Division No. 3, Manitoba, Canada","address":{"city":"Morden","county":"Division No. 3","state":"Manitoba","ISO3166-2-lvl4":"CA-MB","country":"Canada","country_code":"ca"},"population":8668,"osm_type":"relation","osm_id":12377311,"type":"administrative","location":[-98.1014567,49.1927055],"bbox":[-98.1485618,49.1702624,-98.0693243,49.2072144]}
{"name":"Southport","display_name":"Southport, Rural Municipality of Portage la Prairie, Division No. 9, Manitoba, Canada","address":{"city":"Southport","county":"Division No. 9","state":"Manitoba","ISO3166-2-lvl4":"CA-MB","country":"Canada","country_code":"ca"},"osm_type":"relation","osm_id":1208278,"type":"city","location":[-98.27576233119458,49.91933905],"bbox":[-98.2784006,49.9140456,-98.2698171,49.9234666]}
{"name":"Morris","display_name":"Morris, Division No. 3, Manitoba, Canada","address":{"city":"Morris","county":"Division No. 3","state":"Manitoba","ISO3166-2-lvl4":"CA-MB","country":"Canada","country_code":"ca"},"osm_type":"way","osm_id":1137617262,"type":"city","location":[-97.37227454180177,49.34822025],"bbox":[-97.3895403,49.341254,-97.3548623,49.358675]}
{"name":"Selkirk","other_names":{"name:uk":"Селкірк"},"display_name":"Selkirk, Division No. 13, Manitoba, Canada","address":{"city":"Selkirk","county":"Division No. 13","state":"Manitoba","ISO3166-2-lvl4":"CA-MB","country":"Canada","country_code":"ca"},"population":9834,"osm_type":"relation","osm_id":11938512,"type":"administrative","location":[-96.880188,50.146986],"bbox":[-96.966824,50.1248512,-96.8502251,50.1776122]}
{"name":"Steinbach","other_names":{"name:en":"Steinbach","name:ru":"Стейнбах","name:uk":"Стайнбек"},"display_name":"Steinbach, Division No. 2, Manitoba, Canada","address":{"city":"Steinbach","county":"Division No. 2","state":"Manitoba","ISO3166-2-lvl4":"CA-MB","country":"Canada","country_code":"ca"},"population":13524,"osm_type":"relation","osm_id":11940273,"type":"administrative","location":[-96.69342,49.530557],"bbox":[-96.7561784,49.48797,-96.642787,49.5748846]}
{"name":"Kenora","other_names":{"name:ar":"كينورا","name:cr":"ᐘᒐᐢᐠ ᐅᓂᑳᐦᐱᕽ","name:en":"Kenora","name:fa":"کنورا","name:he":"קנורה","name:oj":"Wazhashk-Onigamiing","name:ru":"Кенора","name:uk":"Кенора","old_name":"Rat Portage","name:cr-SRO":"wacask-onikâhpihk","old_name:uk":"Рат Портаж"},"display_name":"Kenora, Kenora District, Northwestern Ontario, Ontario, Canada","address":{"city":"Kenora","county":"Kenora District","state_district":"Northwestern Ontario","state":"Ontario","ISO3166-2-lvl4":"CA-ON","country":"Canada","country_code":"ca"},"population":15096,"osm_type":"relation","osm_id":7678623,"type":"administrative","location":[-94.4893528,49.766215],"bbox":[-94.5917133,49.7398392,-94.3430629,49.9063359]}
{"name":"Dauphin","other_names":{"name:en":"Dauphin","name:ru":"Дофин","name:uk":"Дофін"},"display_name":"Dauphin, Division No. 17, Manitoba, Canada","address":{"city":"Dauphin","county":"Division No. 17","state":"Manitoba","ISO3166-2-lvl4":"CA-MB","country":"Canada","country_code":"ca"},"population":8251,"osm_type":"relation","osm_id":12377440,"type":"administrative","location":[-100.04425,51.153509],"bbox":[-100.0750456,51.1253641,-100.0165867,51.1698717]}
{"name":"Dryden","other_names":{"name:en":"Dryden","name:ru":"Драйден","name:uk":"Драйден"},"display_name":"Dryden, Kenora District, Northwestern Ontario, Ontario, Canada","address":{"city":"Dryden","county":"Kenora District","state_district":"Northwestern Ontario","state":"Ontario","ISO3166-2-lvl4":"CA-ON","country":"Canada","country_code":"ca"},"population":7749,"osm_type":"relation","osm_id":4858156,"type":"administrative","location":[-92.835846,49.785698],"bbox":[-92.86127,49.7499809,-92.6332984,49.8151415]}
{"name":"Thompson","other_names":{"name:en":"Thompson","name:ru":"Томпсон","name:uk":"Томпсон"},"display_name":"Thompson, Division No. 22, Manitoba, Canada","address":{"city":"Thompson","county":"Division No. 22","state":"Manitoba","ISO3166-2-lvl4":"CA-MB","country":"Canada","country_code":"ca"},"population":12829,"osm_type":"relation","osm_id":12377237,"type":"administrative","location":[-97.863464,55.743347],"bbox":[-97.8980336,55.7257116,-97.7927162,55.7949547]}
{"name":"Fort McMurray","other_names":{"name:en":"Fort McMurray","name:ru":"Форт-МакМеррей","name:uk":"Форт-МакМеррей"},"display_name":"Fort McMurray, Wood Buffalo, Alberta, Canada","address":{"city":"Fort McMurray","county":"Wood Buffalo","state":"Alberta","ISO3166-2-lvl4":"CA-AB","country":"Canada","country_code":"ca"},"population":66573,"osm_type":"relation","osm_id":7549298,"type":"administrative","location":[-111.3885221,56.7291997],"bbox":[-111.5109382,56.6437458,-111.2070503,56.8044658]}
{"name":"Churchill","other_names":{"name:iu":"ᑯᒡᔪᐊᖅ","name:ru":"Черчилл","name:uk":"Черчилл","name:iu-Latn":"Kuugjuaq"},"display_name":"Churchill, Division No. 23, Manitoba, Canada","address":{"city":"Churchill","county":"Division No. 23","state":"Manitoba","ISO3166-2-lvl4":"CA-MB","country":"Canada","country_code":"ca"},"population":899,"osm_type":"relation","osm_id":14426854,"type":"administrative","location":[-94.1736843,58.7693101],"bbox":[-94.2044881,58.7013859,-94.0233709,58.7900352]}
{"name":"Sarnia","other_names":{"name:ar":"سارنيا"},"display_name":"Sarnia, Lambton County, Ontario, Canada","address":{"city":"Sarnia","county":"Lambton County","state":"Ontario","ISO3166-2-lvl4":"CA-ON","country":"Canada","country_code":"ca"},"population":71594,"osm_type":"relation","osm_id":3642177,"type":"administrative","location":[-82.403533,42.9743821],"bbox":[-82.4600998,42.9118197,-82.229867,43.038557]}
{"name":"St. Thomas","other_names":{"official_name":"City of St. Thomas"},"display_name":"St. Thomas, Ontario, Canada","address":{"city":"St. Thomas","state":"Ontario","ISO3166-2-lvl4":"CA-ON","country":"Canada","country_code":"ca"},"population":38909,"osm_type":"relation","osm_id":2911978,"type":"administrative","location":[-81.1929882,42.779022],"bbox":[-81.2405115,42.7422739,-81.1352202,42.8129432]}
{"name":"Woodstock","display_name":"Woodstock, Oxford County, Ontario, Canada","address":{"city":"Woodstock","county":"Oxford County","state":"Ontario","ISO3166-2-lvl4":"CA-ON","country":"Canada","country_code":"ca"},"population":40902,"osm_type":"relation","osm_id":7496363,"type":"administrative","location":[-80.7562977,43.1301111],"bbox":[-80.790211,43.0943233,-80.656175,43.1777755]}
{"name":"Stratford","other_names":{"official_name":"City of Stratford","name:fr":"Stratford","name:ckb":"ستراتفۆرد"},"display_name":"Stratford, Ontario, Canada","address":{"city":"Stratford","state":"Ontario","ISO3166-2-lvl4":"CA-ON","country":"Canada","country_code":"ca"},"population":31465,"osm_type":"relation","osm_id":7486330,"type":"administrative","location":[-80.9818016,43.3700899],"bbox":[-81.0262802,43.3387463,-80.9379315,43.4007497]}
{"name":"Brantford","other_names":{"official_name":"City of Brantford","name:cay":"Tganadaháe:'","name:moh":"Tsi kanatáhere","name:ono":"Tganadahǽꞏʔ"},"display_name":"Brantford, Ontario, Canada","address":{"city":"Brantford","state":"Ontario","ISO3166-2-lvl4":"CA-ON","country":"Canada","country_code":"ca"},"population":97496,"osm_type":"relation","osm_id":10268812,"type":"administrative","location":[-80.2631733,43.1408157],"bbox":[-80.3535817,43.0941149,-80.1896751,43.2084745]}
{"name":"Waterloo","other_names":{"name:ar":"واترلو","name:de":"Waterloo","name:fr":"Waterloo","name:nl":"Waterloo","name:ru":"Ватерлоо","name:zh":"滑铁卢"},"display_name":"Waterloo, Region of Waterloo, Ontario, Canada","address":{"city":"Waterloo","county":"Region of Waterloo","state":"Ontario","ISO3166-2-lvl4":"CA-ON","country":"Canada","country_code":"ca"},"population":104986,"osm_type":"relation","osm_id":2062154,"type":"administrative","location":[-80.5222961,43.4652699],"bbox":[-80.6260904,43.4322663,-80.4674214,43.5312209]}
{"name":"Cambridge","other_names":{"official_name":"City of Cambridge","name:en":"Cambridge","name:ru":"Кеймбридж"},"display_name":"Cambridge, Region of Waterloo, Ontario, Canada","address":{"city":"Cambridge","county":"Region of Waterloo","state":"Ontario","ISO3166-2-lvl4":"CA-ON","country":"Canada","country_code":"ca"},"population":129920,"osm_type":"relation","osm_id":2062152,"type":"administrative","location":[-80.3123023,43.3600536],"bbox":[-80.413078,43.3323902,-80.2514908,43.4723418]}
{"name":"Guelph","other_names":{"official_name":"City of Guelph","name:ar":"جويلف","name:el":"Γκουέλφ","name:fa":"گوئلف","name:he":"גואלף","name:ja":"ゲルフ","name:ko":"궬프","name:ug":"گۇېلف","name:zh":"贵湖","name:moh":"Thatinatón:ni"},"display_name":"Guelph, Ontario, Canada","address":{"city":"Guelph","state":"Ontario","ISO3166-2-lvl4":"CA-ON","country":"Canada","country_code":"ca"},"population":131794,"osm_type":"relation","osm_id":7486148,"type":"administrative","location":[-80.2493276,43.5460516],"bbox":[-80.3269091,43.4738217,-80.1535013,43.594353]}
{"name":"Kitchener","other_names":{"name:de":"Kitchener","name:en":"Kitchener","name:es":"Kitchener","name:fr":"Kitchener","name:it":"Kitchener","name:ru":"Китченер","name:ko":"키치너","name:uk":"Кіченер","name:zh":"基秦拿"},"display_name":"Kitchener, Region of Waterloo, Ontario, Canada","address":{"city":"Kitchener","county":"Region of Waterloo","state":"Ontario","ISO3166-2-lvl4":"CA-ON","country":"Canada","country_code":"ca"},"population":233222,"osm_type":"relation","osm_id":2062153,"type":"administrative","location":[-80.4927815,43.451291],"bbox":[-80.5734577,43.3538756,-80.3784145,43.5068282]}
{"name":"Hamilton","other_names":{"name:ar":"هاميلتون","name:be":"Гамільтан","name:bg":"Хамилтън","name:el":"Χάμιλτον","name:eo":"Hamiltono","name:fa":"همیلتون","name:he":"המילטון","name:ja":"ハミルトン","name:ka":"ჰამილტონი","name:ko":"해밀턴","name:ku":"Hamilton","name:lt":"Hamiltonas","name:mk":"Хамилтон","name:mr":"हॅमिल्टन, बर्म्युडा","name:os":"Гамильтон","name:ru":"Гамильтон","name:sr":"Хамилтон","name:uk":"Гамільтон","name:zh":"汉密尔顿","alt_name":"Hamilton, ON","name:cay":"Gahënagö:","name:ckb":"هامیڵتۆن","name:moh":"Ohròn:wakon","alt_name:moh":"Tsi kanatákera’s","official_name":"City of Hamilton","name:bn":"হ্যামিল্টন","name:hi":"हैमिल्टन","name:ur":"ہیملٹن","name:be-tarask":"Гамільтан","name:ono":"Tgahehdáꞏdųʔ","official_name:ku":"Bajarê Hamîlton","official_name:ckb":"شاری هامیڵتۆن","alt:zh":"哈密尔顿"},"display_name":"Hamilton, Golden Horseshoe, Ontario, Canada","address":{"city":"Hamilton","state_district":"Golden Horseshoe","state":"Ontario","ISO3166-2-lvl4":"CA-ON","country":"Canada","country_code":"ca"},"population":519949,"osm_type":"relation","osm_id":7034910,"type":"administrative","location":[-79.8728583,43.2560802],"bbox":[-80.2485579,43.0505073,-79.6221146,43.4706805]}
{"name":"Burlington","other_names":{"name:ar":"بيرلينجتون","name:el":"Μπέρλινγκτον","name:fa":"برلینگتون","name:he":"ברלינגטון","name:ja":"バーリントン","name:ko":"벌링턴","name:ru":"Берлингтон","name:ur":"برلنگٹن","name:zh":"伯灵顿","name:ckb":"بورلینگتۆن","name:moh":"Tetio’neshóhon","name:ono":"Dyoʔnehsahę́ꞏhwaʔ","alt_name:ono":"Dyoʔnhehsahę́hwaʔ"},"display_name":"Burlington, Halton Region, Golden Horseshoe, Ontario, Canada","address":{"city":"Burlington","county":"Halton Region","state_district":"Golden Horseshoe","state":"Ontario","ISO3166-2-lvl4":"CA-ON","country":"Canada","country_code":"ca"},"population":183314,"osm_type":"relation","osm_id":2407513,"type":"administrative","location":[-79.7966835,43.3248924],"bbox":[-79.9592676,43.2862845,-79.713939,43.4765533]}
{"name":"Thorold","display_name":"Thorold, Niagara Region, Golden Horseshoe, Ontario, Canada","address":{"city":"Thorold","county":"Niagara Region","state_district":"Golden Horseshoe","state":"Ontario","ISO3166-2-lvl4":"CA-ON","country":"Canada","country_code":"ca"},"population":18801,"osm_type":"relation","osm_id":2388023,"type":"administrative","location":[-79.2005935,43.1249127],"bbox":[-79.2871604,43.0266862,-79.1685805,43.1405954]}
{"name":"Oakville","display_name":"Oakville, Halton Region, Golden Horseshoe, Ontario, Canada","address":{"city":"Oakville","county":"Halton Region","state_district":"Golden Horseshoe","state":"Ontario","ISO3166-2-lvl4":"CA-ON","country":"Canada","country_code":"ca"},"population":193832,"osm_type":"relation","osm_id":2407500,"type":"administrative","location":[-79.666672,43.447436],"bbox":[-79.8109532,43.3648541,-79.6198948,43.5284371]}
{"name":"Welland","display_name":"Welland, Niagara Region, Golden Horseshoe, Ontario, Canada","address":{"city":"Welland","county":"Niagara Region","state_district":"Golden Horseshoe","state":"Ontario","ISO3166-2-lvl4":"CA-ON","country":"Canada","country_code":"ca"},"population":52293,"osm_type":"relation","osm_id":2387988,"type":"administrative","location":[-79.2484192,42.9922181],"bbox":[-79.2908147,42.9192869,-79.167167,43.0427134]}
{"name":"Niagara Falls","other_names":{"name:en":"Niagara Falls","name:fr":"Niagara Falls","name:ru":"Ниагара-Фолс","name:uk":"Ніагара-Фоллс","name:ar":"شلالات نياجارا","name:az":"Niaqara şəlaləsi","name:cs":"Niagarské Vodopády","name:fa":"آبشار نیاگارا","name:he":"מפלי ניאגרה","name:ku":"Avşara Niagara","name:oj":"Wayaanag-gakaabikaawang","name:sk":"Niagarské vodopády","name:azb":"نیاقارا شلاله‌لری","name:ckb":"تاڤگەکانی نیاگارا","name:moh":"name:moh=Tkaniá:taren’s"},"display_name":"Niagara Falls, Niagara Region, Golden Horseshoe, Ontario, Canada","address":{"city":"Niagara Falls","county":"Niagara Region","state_district":"Golden Horseshoe","state":"Ontario","ISO3166-2-lvl4":"CA-ON","country":"Canada","country_code":"ca"},"population":93000,"osm_type":"relation","osm_id":2388057,"type":"administrative","location":[-79.0639039,43.1065603],"bbox":[-79.1772787,42.959288,-78.9997399,43.1479269]}
{"name":"St. Catharines","other_names":{"name:ar":"سانت كاثرينز","name:el":"Σαιντ Κάθαρινς","name:en":"St. Catharines","name:fa":"سنت کاترینز","name:fr":"Saint Catharines","name:he":"סנט קתרינס","name:ko":"세인트캐서린스","name:ru":"Сент-Катаринс","name:uk":"Сент-Кетерінс","name:ur":"سینٹ کیتھرائنز","name:zh":"圣凯瑟琳斯","name:moh":"Tetiotenonshà:kton","name:ono":"Dyodnųhsáʔkdųʔ"},"display_name":"St. Catharines, Niagara Region, Golden Horseshoe, Ontario, Canada","address":{"city":"St. Catharines","county":"Niagara Region","state_district":"Golden Horseshoe","state":"Ontario","ISO3166-2-lvl4":"CA-ON","country":"Canada","country_code":"ca"},"population":133113,"osm_type":"relation","osm_id":2387995,"type":"administrative","location":[-79.2441003,43.1579812],"bbox":[-79.3209212,43.106662,-79.1778306,43.2500098]}
{"name":"Owen Sound","other_names":{"name:oj":"Gchi-wiigwedong"},"display_name":"Owen Sound, Grey County, Ontario, Canada","address":{"city":"Owen Sound","county":"Grey County","state":"Ontario","ISO3166-2-lvl4":"CA-ON","country":"Canada","country_code":"ca"},"population":21341,"osm_type":"relation","osm_id":7478456,"type":"administrative","location":[-80.9430094,44.5678105],"bbox":[-80.9637208,44.5408993,-80.8918575,44.6095408]}
{"name":"Brampton","display_name":"Brampton, Peel Region, Golden Horseshoe, Ontario, Canada","address":{"city":"Brampton","county":"Peel Region","state_district":"Golden Horseshoe","state":"Ontario","ISO3166-2-lvl4":"CA-ON","country":"Canada","country_code":"ca"},"population":593638,"osm_type":"relation","osm_id":2407358,"type":"administrative","location":[-79.7599366,43.685832],"bbox":[-79.8888473,43.6018018,-79.6302939,43.8480959]}
{"name":"Mississauga","other_names":{"name:de":"Mississauga","name:en":"Mississauga","name:es":"Mississauga","name:fr":"Mississauga","name:it":"Mississauga","name:ru":"Миссиссога","name:ckb":"میسیساگا","short_name":"Ont."},"display_name":"Mississauga, Peel Region, Golden Horseshoe, Ontario, Canada","address":{"city":"Mississauga","county":"Peel Region","state_district":"Golden Horseshoe","state":"Ontario","ISO3166-2-lvl4":"CA-ON","country":"Canada","country_code":"ca"},"population":721599,"osm_type":"relation","osm_id":1954127,"type":"administrative","location":[-79.6443879,43.5896231],"bbox":[-79.8103184,43.4789901,-79.5385553,43.7370604]}
{"name":"Vaughan","display_name":"Vaughan, York Region, Golden Horseshoe, Ontario, Canada","address":{"city":"Vaughan","county":"York Region","state_district":"Golden Horseshoe","state":"Ontario","ISO3166-2-lvl4":"CA-ON","country":"Canada","country_code":"ca"},"population":306233,"osm_type":"relation","osm_id":324212,"type":"administrative","location":[-79.5268023,43.7941544],"bbox":[-79.7106948,43.7498436,-79.4200471,43.9243511]}
{"name":"Newmarket","display_name":"Newmarket, York Region, Golden Horseshoe, Ontario, Canada","address":{"city":"Newmarket","county":"York Region","state_district":"Golden Horseshoe","state":"Ontario","ISO3166-2-lvl4":"CA-ON","country":"Canada","country_code":"ca"},"population":84224,"osm_type":"relation","osm_id":2407406,"type":"administrative","location":[-79.461708,44.056258],"bbox":[-79.5093678,44.0160565,-79.4117446,44.0834542]}
{"name":"Pickering","other_names":{"name:fr":"Pickering"},"display_name":"Pickering, Durham Region, Golden Horseshoe, Ontario, Canada","address":{"city":"Pickering","county":"Durham Region","state_district":"Golden Horseshoe","state":"Ontario","ISO3166-2-lvl4":"CA-ON","country":"Canada","country_code":"ca"},"population":91771,"osm_type":"relation","osm_id":2408836,"type":"administrative","location":[-79.090576,43.835765],"bbox":[-79.2200381,43.7930746,-79.0085864,44.0107582]}
{"name":"Markham","display_name":"Markham, York Region, Golden Horseshoe, Ontario, Canada","address":{"city":"Markham","county":"York Region","state_district":"Golden Horseshoe","state":"Ontario","ISO3166-2-lvl4":"CA-ON","country":"Canada","country_code":"ca"},"population":328966,"osm_type":"relation","osm_id":324213,"type":"administrative","location":[-79.3376825,43.8563707],"bbox":[-79.428729,43.7980391,-79.1702314,43.9625146]}
{"name":"Toronto","other_names":{"name:ar":"تورونتو","name:bn":"টোরোংটো","name:ca":"Toronto","name:de":"Toronto","name:el":"Τορόντο","name:en":"Toronto","name:eo":"Toronto","name:es":"Toronto","name:fa":"تورنتو","name:fr":"Toronto","name:gr":"Τορόντον","name:he":"טורונטו","name:hi":"टॊरॊंटो","name:hy":"Տորոնտո","name:ja":"トロント","name:kn":"ಟೊರೊಂಟೋ","name:ko":"토론토","name:ku":"Toronto","name:mr":"टॊरॊंटो","name:oc":"Toronto","name:oj":"Gichi Kiiwenging","name:pa":"ਟੋਰਾਂਟੋ","name:pl":"Toronto","name:ps":"ټورنټو","name:pt":"Toronto","name:ru":"Торонто","name:ta":"டொரொண்டோ","name:ug":"تورونتو","name:uk":"Торонто","name:ur":"ٹورانٹو","name:zh":"多伦多","name:azb":"تورونتو","name:ckb":"تۆرنتۆ","name:grc":"Τορόντον","name:hyw":"Թորոնթօ","name:kmr":"تۆرۆنتۆ","name:moh":"Tkaronto","name:pnb":"ٹورنٹو","name:az-Arab":"تورونتو","name:kk-Arab":"تورونتو","name:kab-Arab":"تورونتو","official_name":"City of Toronto","name:ono":"Tgáędoʔ","official_name:ar":"مدينة تورونتو","official_name:ku":"Bajarê Toronto","official_name:ur":"ٹورانٹو کا شہر","official_name:ckb":"شاری تۆرنتۆ","alt_name:ono":"Tháęꞏdoʔ","alt:moh":"Aterón:to"},"display_name":"Toronto, Golden Horseshoe, Ontario, Canada","address":{"city":"Toronto","state_district":"Golden Horseshoe","state":"Ontario","ISO3166-2-lvl4":"CA-ON","country":"Canada","country_code":"ca"},"population":2731571,"osm_type":"relation","osm_id":324211,"type":"administrative","location":[-79.3839347,43.6534817],"bbox":[-79.6392832,43.5796082,-79.1132193,43.8554414]}
{"name":"Richmond Hill","display_name":"Richmond Hill, York Region, Golden Horseshoe, Ontario, Canada","address":{"city":"Richmond Hill","county":"York Region","state_district":"Golden Horseshoe","state":"Ontario","ISO3166-2-lvl4":"CA-ON","country":"Canada","country_code":"ca"},"population":195022,"osm_type":"relation","osm_id":2407259,"type":"administrative","location":[-79.4392925,43.8801166],"bbox":[-79.4855416,43.8275458,-79.3708618,43.9776956]}
{"name":"Ajax","other_names":{"name:hi":"एजाक्स"},"display_name":"Ajax, Durham Region, Golden Horseshoe, Ontario, Canada","address":{"city":"Ajax","county":"Durham Region","state_district":"Golden Horseshoe","state":"Ontario","ISO3166-2-lvl4":"CA-ON","country":"Canada","country_code":"ca"},"population":119677,"osm_type":"relation","osm_id":2408837,"type":"administrative","location":[-79.0208814,43.8505287],"bbox":[-79.0882994,43.8058319,-78.9645592,43.922625]}
{"name":"Whitby","display_name":"Whitby, Durham Region, Golden Horseshoe, Ontario, Canada","address":{"city":"Whitby","county":"Durham Region","state_district":"Golden Horseshoe","state":"Ontario","ISO3166-2-lvl4":"CA-ON","country":"Canada","country_code":"ca"},"population":128377,"osm_type":"relation","osm_id":2408838,"type":"administrative","location":[-78.9421751,43.87982],"bbox":[-79.0473097,43.8173744,-78.874655,44.0288194]}
{"name":"Oshawa","display_name":"Oshawa, Durham Region, Golden Horseshoe, Ontario, Canada","address":{"city":"Oshawa","county":"Durham Region","state_district":"Golden Horseshoe","state":"Ontario","ISO3166-2-lvl4":"CA-ON","country":"Canada","country_code":"ca"},"population":159458,"osm_type":"relation","osm_id":333748,"type":"administrative","location":[-78.8635324,43.8975558],"bbox":[-78.9587724,43.8320653,-78.7879444,44.0474286]}
{"name":"Barrie","other_names":{"official_name":"City of Barrie","name:en":"Barrie","name:ru":"Барри","name:uk":"Беррі"},"display_name":"Barrie, Central Ontario, Ontario, Canada","address":{"city":"Barrie","state_district":"Central Ontario","state":"Ontario","ISO3166-2-lvl4":"CA-ON","country":"Canada","country_code":"ca"},"population":141434,"osm_type":"relation","osm_id":6609999,"type":"administrative","location":[-79.6901736,44.3893113],"bbox":[-79.7456508,44.2937481,-79.5858974,44.4245913]}
{"name":"Kawartha Lakes","other_names":{"official_name":"City of Kawartha Lakes"},"display_name":"Kawartha Lakes, Central Ontario, Ontario, Canada","address":{"city":"Kawartha Lakes","state_district":"Central Ontario","state":"Ontario","ISO3166-2-lvl4":"CA-ON","country":"Canada","country_code":"ca"},"population":75423,"osm_type":"relation","osm_id":7473857,"type":"administrative","location":[-78.7421729,44.3596825],"bbox":[-79.2085137,44.0583614,-78.4254725,44.9855012]}
{"name":"Quinte West","other_names":{"official_name":"City of Quinte West"},"display_name":"Quinte West, Central Ontario, Ontario, Canada","address":{"city":"Quinte West","state_district":"Central Ontario","state":"Ontario","ISO3166-2-lvl4":"CA-ON","country":"Canada","country_code":"ca"},"population":43577,"osm_type":"relation","osm_id":7443054,"type":"administrative","location":[-77.5748551,44.0988246],"bbox":[-77.7531923,43.9928594,-77.4115665,44.3143869]}
{"name":"Peterborough","other_names":{"official_name":"City of Peterborough","name:en":"Peterborough","name:ru":"Питерборо","name:uk":"Пітерборо"},"display_name":"Peterborough, Central Ontario, Ontario, Canada","address":{"city":"Peterborough","state_district":"Central Ontario","state":"Ontario","ISO3166-2-lvl4":"CA-ON","country":"Canada","country_code":"ca"},"population":81032,"osm_type":"relation","osm_id":7473849,"type":"administrative","location":[-78.3199496,44.3048009],"bbox":[-78.3879706,44.2526297,-78.2683318,44.3784864]}
{"name":"Thunder Bay","other_names":{"name:en":"Thunder Bay","name:ru":"Тандер-Бей","name:uk":"Тандер-Бей"},"display_name":"Thunder Bay, Thunder Bay District, Northwestern Ontario, Ontario, Canada","address":{"city":"Thunder Bay","county":"Thunder Bay District","state_district":"Northwestern Ontario","state":"Ontario","ISO3166-2-lvl4":"CA-ON","country":"Canada","country_code":"ca"},"population":107909,"osm_type":"relation","osm_id":7596931,"type":"administrative","location":[-89.259796,48.406414],"bbox":[-89.4275716,48.2829818,-89.0607679,48.5149964]}
{"name":"Sault Ste. Marie","other_names":{"name:de":"Sault Ste. Marie","name:fr":"Sault-Sainte-Marie","name:uk":"Су-Сен-Марі"},"display_name":"Sault Ste. Marie, Algoma District, Northeastern Ontario, Ontario, Canada","address":{"city":"Sault Ste. Marie","county":"Algoma District","state_district":"Northeastern Ontario","state":"Ontario","ISO3166-2-lvl4":"CA-ON","country":"Canada","country_code":"ca"},"population":73368,"osm_type":"relation","osm_id":7590370,"type":"administrative","location":[-84.320068,46.52391],"bbox":[-84.6273183,46.4528611,-84.2258889,46.6122858]}
{"name":"Mastone","display_name":"Mastone, Unorganized Thunder Bay District, Thunder Bay District, Northwestern Ontario, Ontario, Canada","address":{"city":"Mastone","county":"Thunder Bay District","state_district":"Northwestern Ontario","state":"Ontario","ISO3166-2-lvl4":"CA-ON","country":"Canada","country_code":"ca"},"population":23617,"osm_type":"way","osm_id":1167571091,"type":"city","location":[-89.886458555606,49.20269975],"bbox":[-89.8907744,49.2008082,-89.8835684,49.2049487]}
{"name":"Elliot Lake","display_name":"Elliot Lake, Algoma District, Northeastern Ontario, Ontario, Canada","address":{"city":"Elliot Lake","county":"Algoma District","state_district":"Northeastern Ontario","state":"Ontario","ISO3166-2-lvl4":"CA-ON","country":"Canada","country_code":"ca"},"population":10741,"osm_type":"relation","osm_id":7589586,"type":"administrative","location":[-82.652893,46.373464],"bbox":[-82.8278965,46.271956,-82.4362206,46.5359258]}
{"name":"North Bay","other_names":{"name:ckb":"نۆرس بەی"},"display_name":"North Bay, Nipissing District, Northeastern Ontario, Ontario, Canada","address":{"city":"North Bay","county":"Nipissing District","state_district":"Northeastern Ontario","state":"Ontario","ISO3166-2-lvl4":"CA-ON","country":"Canada","country_code":"ca"},"population":51553,"osm_type":"relation","osm_id":7129502,"type":"administrative","location":[-79.4607617,46.3092115],"bbox":[-79.5,46.2271579,-79.2569831,46.4469659]}
{"name":"Temiskaming Shores","display_name":"Temiskaming Shores, Timiskaming District, Northeastern Ontario, Ontario, Canada","address":{"city":"Temiskaming Shores","county":"Timiskaming District","state_district":"Northeastern Ontario","state":"Ontario","ISO3166-2-lvl4":"CA-ON","country":"Canada","country_code":"ca"},"population":9920,"osm_type":"relation","osm_id":7570221,"type":"administrative","location":[-79.675598,47.512563],"bbox":[-79.7597793,47.4070036,-79.5641279,47.580851]}
{"display_name":"Kapuskasing, Cochrane District, Northeastern Ontario, Ontario, Canada","address":{"town":"Kapuskasing","county":"Cochrane District","state_district":"Northeastern Ontario","state":"Ontario","ISO3166-2-lvl4":"CA-ON","country":"Canada","country_code":"ca"},"osm_type":"way","osm_id":653894703,"type":"city","location":[-82.43045240600158,49.4160422],"bbox":[-82.4311828,49.4156945,-82.4298733,49.4165188]}
{"name":"Timmins","other_names":{"name:en":"Timmins","name:ru":"Тимминс","name:uk":"Тіммінс"},"display_name":"Timmins, Cochrane District, Northeastern Ontario, Ontario, Canada","address":{"city":"Timmins","county":"Cochrane District","state_district":"Northeastern Ontario","state":"Ontario","ISO3166-2-lvl4":"CA-ON","country":"Canada","country_code":"ca"},"population":41788,"osm_type":"relation","osm_id":7588071,"type":"administrative","location":[-81.330414,48.477473],"bbox":[-81.7276447,48.2765014,-80.8114215,48.7116561]}
{"name":"Greater Sudbury","other_names":{"name:ru":"Большой Садбери","name:uk":"Садбері","name:ckb":"سەدبێری","official_name":"Greater Sudbury","alt":"Sudbury"},"display_name":"Greater Sudbury, Sudbury District, Northeastern Ontario, Ontario, Canada","address":{"city":"Greater Sudbury","county":"Sudbury District","state_district":"Northeastern Ontario","state":"Ontario","ISO3166-2-lvl4":"CA-ON","country":"Canada","country_code":"ca"},"population":161531,"osm_type":"relation","osm_id":7568929,"type":"administrative","location":[-80.991211,46.49272],"bbox":[-81.5984276,46.1958356,-80.5488232,46.973056]}
{"name":"Gatineau","other_names":{"official_name":"Ville de Gatineau","name:zh-Hans":"加蒂诺","name:zh-Hant":"加蒂諾"},"display_name":"Gatineau, Outaouais, Québec, Canada","address":{"city":"Gatineau","region":"Outaouais","state":"Québec","ISO3166-2-lvl4":"CA-QC","country":"Canada","country_code":"ca"},"population":276245,"osm_type":"relation","osm_id":5356213,"type":"administrative","location":[-75.710976,45.4277659],"bbox":[-75.9083514,45.372383,-75.3442298,45.5991239]}
{"name":"(Old) Ottawa","other_names":{"name:fr":"Vieil Ottawa"},"display_name":"(Old) Ottawa, Ottawa, Eastern Ontario, Ontario, Canada","address":{"city":"(Old) Ottawa","state_district":"Eastern Ontario","state":"Ontario","ISO3166-2-lvl4":"CA-ON","country":"Canada","country_code":"ca"},"osm_type":"relation","osm_id":9244979,"type":"administrative","location":[-75.68233411939545,45.394565549999996],"bbox":[-75.816932,45.3203955,-75.5919564,45.468688]}
{"name":"Mirabel","display_name":"Mirabel, Laurentides, Québec, Canada","address":{"city":"Mirabel","region":"Laurentides","state":"Québec","ISO3166-2-lvl4":"CA-QC","country":"Canada","country_code":"ca"},"osm_type":"relation","osm_id":7699994,"type":"administrative","location":[-74.0731738,45.6452452],"bbox":[-74.2676054,45.5147829,-73.8505244,45.7894917]}
{"name":"Saint-Jean-sur-Richelieu","other_names":{"short_name":"St-Jean-s-Richelieu"},"display_name":"Saint-Jean-sur-Richelieu, Le Haut-Richelieu, Montérégie, Québec, Canada","address":{"city":"Saint-Jean-sur-Richelieu","county":"Le Haut-Richelieu","region":"Montérégie","state":"Québec","ISO3166-2-lvl4":"CA-QC","country":"Canada","country_code":"ca"},"population":95114,"osm_type":"relation","osm_id":1600484,"type":"administrative","location":[-73.2533401,45.3056879],"bbox":[-73.4114444,45.2332086,-73.1680234,45.4130868]}
{"name":"Longueuil","other_names":{"name:de":"Longueuil","name:en":"Longueuil","name:es":"Longueuil","name:fr":"Longueuil","name:it":"Longueuil","name:ja":"ロンゲール","name:pl":"Longueuil","name:pt":"Longueuil","name:ru":"Лонгёй","name:ar":"لونغوي","name:el":"Λονγκέιγ","name:fa":"لونگوی","name:he":"לונגוי","name:ko":"롱괴유","name:uk":"Лонгуей","name:zh":"朗基尔","name:moh":"Karonhiatsi’kowáhne"},"display_name":"Longueuil, Agglomération de Longueuil, Montérégie, Québec, Canada","address":{"city":"Longueuil","county":"Agglomération de Longueuil","region":"Montérégie","state":"Québec","ISO3166-2-lvl4":"CA-QC","country":"Canada","country_code":"ca"},"population":252000,"osm_type":"relation","osm_id":6948543,"type":"administrative","location":[-73.4644578,45.521906],"bbox":[-73.5306573,45.4329827,-73.3389814,45.5890675]}
{"name":"Laval","other_names":{"name:ru":"Лаваль"},"display_name":"Laval, Laval (région administrative), Québec, Canada","address":{"city":"Laval","state":"Québec","ISO3166-2-lvl4":"CA-QC","country":"Canada","country_code":"ca"},"population":401553,"osm_type":"relation","osm_id":1438336,"type":"administrative","location":[-73.73441730569056,45.60558895],"bbox":[-73.8953597,45.5109049,-73.5235036,45.7007485]}
{"name":"Montréal","other_names":{"name:ar":"مونتريال","name:be":"Манрэаль","name:bg":"Монреал","name:ca":"Mont-real","name:de":"Montreal","name:el":"Μόντρεαλ","name:en":"Montreal","name:eo":"Montrealo","name:es":"Montreal","name:fa":"مونترآل","name:fr":"Montréal","name:gr":"Μοντρεάλη","name:hy":"Մոնրեալ","name:ko":"몬트리올","name:ks":"مانٹریال","name:pa":"ਮਾਂਟਰੀਆਲ","name:pl":"Montreal","name:ps":"مونټريال","name:pt":"Montreal","name:ru":"Монреаль","name:sh":"Montreal","name:sr":"Монтреал","name:uk":"Монреаль","name:ur":"مانٹریال","name:zh":"蒙特婁","name:azb":"مونترئال","name:grc":"Μοντρεάλη","name:hyw":"Մոնրէալ","name:kab":"Montreal","name:mzn":"مونترئال","name:pnb":"مونٹریال","name:he":"מונטריאול","name:iu":"ᒧᕆᐊᓪ","name:ja":"モントリオール","name:kn":"ಹ್ಯುಸ್ಟಣ್","name:nl":"Montreal","name:oc":"Montreal","name:oj":"Mooniyaang","name:ug":"مونترېئال","name:yi":"מאנטרעאל","name:be-tarask":"Манрэаль","name:ckb":"مۆنتریال","name:mic":"Mulian","name:moh":"Tiohtià:ke","name:ojg":"Moon'yang","name:zh-Hans":"蒙特利尔","name:zh-Hant":"蒙特利爾","official_name:moh":"Tiohtià:ke tsi ionhwéntsare.","alt:zh":"蒙特利尔"},"display_name":"Montréal, Agglomération de Montréal, Montréal (région administrative), Québec, Canada","address":{"city":"Montréal","county":"Agglomération de Montréal","region":"Montréal (région administrative)","state":"Québec","ISO3166-2-lvl4":"CA-QC","country":"Canada","country_code":"ca"},"population":1762949,"osm_type":"relation","osm_id":1634158,"type":"administrative","location":[-73.5698065,45.5031824],"bbox":[-73.9741567,45.4100756,-73.4742952,45.7047897]}
{"name":"Val-d'Or","display_name":"Val-d'Or, La Vallée-de-l'Or, Abitibi-Témiscamingue, Québec, Canada","address":{"city":"Val-d'Or","county":"La Vallée-de-l'Or","region":"Abitibi-Témiscamingue","state":"Québec","ISO3166-2-lvl4":"CA-QC","country":"Canada","country_code":"ca"},"population":35000,"osm_type":"relation","osm_id":7359771,"type":"administrative","location":[-77.7875715,48.1023356],"bbox":[-78.2211937,47.7026504,-76.9332301,48.2875255]}
{"name":"Trois-Rivières","other_names":{"alt_name":"Ville de Trois-Rivières","name:en":"Trois-Rivières","name:ru":"Труа-Ривьер","name:uk":"Труа-Рів'єр"},"display_name":"Trois-Rivières, Mauricie, Québec, Canada","address":{"city":"Trois-Rivières","region":"Mauricie","state":"Québec","ISO3166-2-lvl4":"CA-QC","country":"Canada","country_code":"ca"},"population":134413,"osm_type":"relation","osm_id":7711553,"type":"administrative","location":[-72.5428485,46.3432325],"bbox":[-72.7794177,46.2528233,-72.4087824,46.4691512]}
{"name":"Shawinigan","other_names":{"name:en":"Shawinigan","name:fr":"Shawinigan","name:ru":"Шавиниган","name:abe":"Azawanigan","name:atj":"Cawinikan"},"display_name":"Shawinigan, Mauricie, Québec, Canada","address":{"city":"Shawinigan","region":"Mauricie","state":"Québec","ISO3166-2-lvl4":"CA-QC","country":"Canada","country_code":"ca"},"population":49620,"osm_type":"relation","osm_id":7711552,"type":"administrative","location":[-72.7518637,46.5396581],"bbox":[-73.1788822,46.4590723,-72.5837342,46.919748]}
{"name":"Saguenay","other_names":{"alt_name:1":"Chicoutimi","alt_name:2":"Jonquière","alt_name:3":"La Baie","alt_name:4":"Laterrière","official_name":"Ville de Saguenay"},"display_name":"Saguenay, Saguenay–Lac-Saint-Jean, Québec, Canada","address":{"city":"Saguenay","region":"Saguenay–Lac-Saint-Jean","state":"Québec","ISO3166-2-lvl4":"CA-QC","country":"Canada","country_code":"ca"},"osm_type":"relation","osm_id":8158186,"type":"administrative","location":[-71.069183,48.405959],"bbox":[-71.5637733,48.1877264,-70.6873399,48.5662729]}
{"name":"Moncton","other_names":{"name:de":"Moncton","name:en":"Moncton","name:es":"Moncton","name:fr":"Moncton","name:it":"Moncton","name:ru":"Монктон","name:uk":"Монктон"},"display_name":"Moncton, Westmorland County, New Brunswick / Nouveau-Brunswick, Canada","address":{"city":"Moncton","county":"Westmorland County","state":"New Brunswick / Nouveau-Brunswick","ISO3166-2-lvl4":"CA-NB","country":"Canada","country_code":"ca"},"population":71,"osm_type":"relation","osm_id":1109568,"type":"administrative","location":[-64.80011,46.097995],"bbox":[-64.9153724,46.0492095,-64.6858223,46.1774541]}
{"name":"Dieppe","display_name":"Dieppe, Westmorland County, New Brunswick / Nouveau-Brunswick, Canada","address":{"city":"Dieppe","county":"Westmorland County","state":"New Brunswick / Nouveau-Brunswick","ISO3166-2-lvl4":"CA-NB","country":"Canada","country_code":"ca"},"population":25384,"osm_type":"relation","osm_id":1109567,"type":"administrative","location":[-64.7354772,46.0945258],"bbox":[-64.7661146,46.0259907,-64.6067688,46.1302059]}
{"name":"Corner Brook","other_names":{"name:en":"Corner Brook","name:ru":"Корнер-Брук","name:uk":"Корнер-Брук"},"display_name":"Corner Brook, Newfoundland, Newfoundland and Labrador, Canada","address":{"city":"Corner Brook","state_district":"Newfoundland","state":"Newfoundland and Labrador","ISO3166-2-lvl4":"CA-NL","country":"Canada","country_code":"ca"},"population":19886,"osm_type":"relation","osm_id":2845280,"type":"administrative","location":[-57.947388,48.95317],"bbox":[-58.0645095,48.8765908,-57.7402525,48.9952919]}
{"name":"Boat Harbour","display_name":"Boat Harbour, Newfoundland, Newfoundland and Labrador, Canada","address":{"town":"Boat Harbour","state_district":"Newfoundland","state":"Newfoundland and Labrador","ISO3166-2-lvl4":"CA-NL","country":"Canada","country_code":"ca"},"osm_type":"way","osm_id":631409018,"type":"city","location":[-54.8535145,47.4312796],"bbox":[-54.890844,47.4202119,-54.8226682,47.4437311]}
{"name":"Mount Pearl","display_name":"Mount Pearl, Newfoundland, Newfoundland and Labrador, Canada","address":{"city":"Mount Pearl","state_district":"Newfoundland","state":"Newfoundland and Labrador","ISO3166-2-lvl4":"CA-NL","country":"Canada","country_code":"ca"},"osm_type":"relation","osm_id":2804977,"type":"administrative","location":[-52.814475267278404,47.518910500000004],"bbox":[-52.8514944,47.4972683,-52.7737997,47.5404946]}
{"name":"St. John's","other_names":{"name:es":"San Juan de Terranova","name:sr":"Сент Џонс","name:ur":"سینٹ جونز","name:azb":"سنت جونز","name:ar":"سانت جونس","name:en":"St. John's","name:fr":"Saint-Jean de Terre-Neuve","name:ga":"Baile Sheáin","name:pt":"São João da Terra Nova","name:ru":"Сент-Джонс","name:uk":"Сент-Джонс","name:zh":"圣约翰斯","alt_name":"Saint John's Newfoundland","name:ckb":"سانت جۆنس","old_name":"San Juan de Pasajes","alt_name:es":"San Juan","official_name":"City of St. John's","official_name:es":"Ciudad de San Juan de Terranova"},"display_name":"St. John's, Newfoundland, Newfoundland and Labrador, Canada","address":{"city":"St. John's","state_district":"Newfoundland","state":"Newfoundland and Labrador","ISO3166-2-lvl4":"CA-NL","country":"Canada","country_code":"ca"},"population":106170,"osm_type":"relation","osm_id":2805426,"type":"administrative","location":[-52.7126162,47.5614705],"bbox":[-53.0378593,47.3273733,-52.6127655,47.6338515]}
{"name":"YE KYI ရေကြည်","display_name":"YE KYI ရေကြည်, Lac-à-la-Croix, La Mitis, Bas-Saint-Laurent, Québec, Canada","address":{"waterway":"YE KYI ရေကြည်","city":"Lac-à-la-Croix","county":"La Mitis","region":"Bas-Saint-Laurent","state":"Québec","ISO3166-2-lvl4":"CA-QC","country":"Canada","country_code":"ca"},"osm_type":"way","osm_id":138404780,"type":"rapids","location":[-67.9334353,48.3608359],"bbox":[-67.9335171,48.3607265,-67.9333549,48.3609433]}
{"name":"Whitehorse","other_names":{"name:en":"Whitehorse","name:pl":"Whitehorse","name:ru":"Уайтхорс","name:uk":"Вайтхорс","name:ckb":"وایت هۆرس"},"display_name":"Whitehorse, Yukon, Canada","address":{"city":"Whitehorse","state":"Yukon","ISO3166-2-lvl4":"CA-YT","country":"Canada","country_code":"ca"},"population":27889,"osm_type":"node","osm_id":2976400400,"type":"city","location":[-135.054932,60.721571],"bbox":[-135.214932,60.561571,-134.894932,60.881571]}
{"name":"Nanaimo","other_names":{"name:en":"Nanaimo","name:ru":"Нанаймо","name:uk":"Нанаймо"},"display_name":"Nanaimo, Regional District of Nanaimo, British Columbia, Canada","address":{"city":"Nanaimo","county":"Regional District of Nanaimo","state":"British Columbia","ISO3166-2-lvl4":"CA-BC","country":"Canada","country_code":"ca"},"population":90504,"osm_type":"node","osm_id":52556169,"type":"city","location":[-123.938122,49.163877],"bbox":[-124.098122,49.003877,-123.778122,49.323877]}
{"name":"Campbell River","other_names":{"name:en":"Campbell River","name:ru":"Кэмпбелл-Ривер","name:uk":"Кембелл-Ривер","name:kwk":"ƛəmataxʷ"},"display_name":"Campbell River, Strathcona Regional District, British Columbia, Canada","address":{"city":"Campbell River","county":"Strathcona Regional District","state":"British Columbia","ISO3166-2-lvl4":"CA-BC","country":"Canada","country_code":"ca"},"population":36455,"osm_type":"node","osm_id":2523813997,"type":"city","location":[-125.244153,50.023071],"bbox":[-125.404153,49.863071,-125.084153,50.183071]}
{"name":"Port Alberni","display_name":"Port Alberni, Alberni-Clayoquot Regional District, British Columbia, Canada","address":{"city":"Port Alberni","county":"Alberni-Clayoquot Regional District","state":"British Columbia","ISO3166-2-lvl4":"CA-BC","country":"Canada","country_code":"ca"},"population":17743,"osm_type":"node","osm_id":33541136,"type":"city","location":[-124.8056517,49.2343668],"bbox":[-124.9656517,49.0743668,-124.6456517,49.3943668]}
{"name":"Courtenay","display_name":"Courtenay, Comox Valley Regional District, British Columbia, Canada","address":{"city":"Courtenay","county":"Comox Valley Regional District","state":"British Columbia","ISO3166-2-lvl4":"CA-BC","country":"Canada","country_code":"ca"},"population":25599,"osm_type":"node","osm_id":4933595964,"type":"city","location":[-124.9954959,49.6894061],"bbox":[-125.1554959,49.5294061,-124.8354959,49.8494061]}
{"name":"Powell River","other_names":{"name:ru":"Пауэлл-Ривер","name:coo":"tiyskʷat","alt_name:coo":"tiskʷat"},"display_name":"Powell River, qathet Regional District, British Columbia, Canada","address":{"city":"Powell River","county":"qathet Regional District","state":"British Columbia","ISO3166-2-lvl4":"CA-BC","country":"Canada","country_code":"ca"},"population":13157,"osm_type":"node","osm_id":1790445554,"type":"city","location":[-124.524412,49.835676],"bbox":[-124.684412,49.675676,-124.364412,49.995676]}
{"name":"Parksville","display_name":"Parksville, Regional District of Nanaimo, British Columbia, Canada","address":{"city":"Parksville","county":"Regional District of Nanaimo","state":"British Columbia","ISO3166-2-lvl4":"CA-BC","country":"Canada","country_code":"ca"},"population":12514,"osm_type":"node","osm_id":52553698,"type":"city","location":[-124.3117397,49.3179514],"bbox":[-124.4717397,49.1579514,-124.1517397,49.4779514]}
{"name":"Prince Rupert","display_name":"Prince Rupert, North Coast Regional District, British Columbia, Canada","address":{"city":"Prince Rupert","county":"North Coast Regional District","state":"British Columbia","ISO3166-2-lvl4":"CA-BC","country":"Canada","country_code":"ca"},"population":12220,"osm_type":"node","osm_id":5336309428,"type":"city","location":[-130.32549,54.3126572],"bbox":[-130.48549,54.1526572,-130.16549,54.4726572]}
{"name":"Kitimat","display_name":"Kitimat, Regional District of Kitimat-Stikine, British Columbia, Canada","address":{"city":"Kitimat","county":"Regional District of Kitimat-Stikine","state":"British Columbia","ISO3166-2-lvl4":"CA-BC","country":"Canada","country_code":"ca"},"osm_type":"node","osm_id":52553401,"type":"city","location":[-128.6540519,54.0535577],"bbox":[-128.8140519,53.8935577,-128.4940519,54.2135577]}
{"name":"Terrace","other_names":{"name:ru":"Террас"},"display_name":"Terrace, Regional District of Kitimat-Stikine, British Columbia, Canada","address":{"city":"Terrace","county":"Regional District of Kitimat-Stikine","state":"British Columbia","ISO3166-2-lvl4":"CA-BC","country":"Canada","country_code":"ca"},"osm_type":"node","osm_id":52556897,"type":"city","location":[-128.599548,54.5172715],"bbox":[-128.759548,54.3572715,-128.439548,54.6772715]}
{"name":"Langford","display_name":"Langford, Capital Regional District, British Columbia, Canada","address":{"city":"Langford","county":"Capital Regional District","state":"British Columbia","ISO3166-2-lvl4":"CA-BC","country":"Canada","country_code":"ca"},"population":35342,"osm_type":"node","osm_id":52553047,"type":"city","location":[-123.5046662,48.4497693],"bbox":[-123.6646662,48.2897693,-123.3446662,48.6097693]}
{"name":"Victoria","other_names":{"name:ar":"فيكتوريا","name:en":"Victoria","name:oc":"Victòria","name:pl":"Victoria","name:ru":"Виктория","name:uk":"Вікторія"},"display_name":"Victoria, Capital Regional District, British Columbia, Canada","address":{"city":"Victoria","county":"Capital Regional District","state":"British Columbia","ISO3166-2-lvl4":"CA-BC","country":"Canada","country_code":"ca"},"population":80017,"osm_type":"node","osm_id":30189922,"type":"city","location":[-123.3649533,48.4283182],"bbox":[-123.5249533,48.2683182,-123.2049533,48.5883182]}
{"name":"Richmond","other_names":{"name:zh-Hant":"列治文"},"display_name":"Richmond, Metro Vancouver Regional District, British Columbia, Canada","address":{"city":"Richmond","county":"Metro Vancouver Regional District","state":"British Columbia","ISO3166-2-lvl4":"CA-BC","country":"Canada","country_code":"ca"},"population":209937,"osm_type":"node","osm_id":6006378717,"type":"city","location":[-123.137414,49.163168],"bbox":[-123.297414,49.003168,-122.977414,49.323168]}
{"name":"Delta","display_name":"Delta, Metro Vancouver Regional District, British Columbia, Canada","address":{"city":"Delta","county":"Metro Vancouver Regional District","state":"British Columbia","ISO3166-2-lvl4":"CA-BC","country":"Canada","country_code":"ca"},"population":108455,"osm_type":"node","osm_id":256800790,"type":"city","location":[-123.057938,49.0846258],"bbox":[-123.217938,48.9246258,-122.897938,49.2446258]}
{"name":"White Rock","display_name":"White Rock, Metro Vancouver Regional District, British Columbia, Canada","address":{"city":"White Rock","county":"Metro Vancouver Regional District","state":"British Columbia","ISO3166-2-lvl4":"CA-BC","country":"Canada","country_code":"ca"},"population":21939,"osm_type":"node","osm_id":5627516682,"type":"city","location":[-122.797924,49.0235357],"bbox":[-122.957924,48.8635357,-122.637924,49.1835357]}
{"name":"New Westminster","display_name":"New Westminster, Metro Vancouver Regional District, British Columbia, Canada","address":{"city":"New Westminster","county":"Metro Vancouver Regional District","state":"British Columbia","ISO3166-2-lvl4":"CA-BC","country":"Canada","country_code":"ca"},"population":58000,"osm_type":"node","osm_id":5319478193,"type":"city","location":[-122.9108818,49.2067726],"bbox":[-123.0708818,49.0467726,-122.7508818,49.3667726]}
{"name":"Surrey","other_names":{"name:sr":"Сари"},"display_name":"Surrey, Metro Vancouver Regional District, British Columbia, Canada","address":{"city":"Surrey","county":"Metro Vancouver Regional District","state":"British Columbia","ISO3166-2-lvl4":"CA-BC","country":"Canada","country_code":"ca"},"population":568322,"osm_type":"node","osm_id":394486236,"type":"city","location":[-122.849143,49.1913033],"bbox":[-123.009143,49.0313033,-122.689143,49.3513033]}
{"name":"Langley City","other_names":{"official_name":"City of Langley"},"display_name":"City of Langley, Metro Vancouver Regional District, British Columbia, Canada","address":{"city":"City of Langley","county":"Metro Vancouver Regional District","state":"British Columbia","ISO3166-2-lvl4":"CA-BC","country":"Canada","country_code":"ca"},"population":28963,"osm_type":"node","osm_id":3627489932,"type":"city","location":[-122.657047,49.1039289],"bbox":[-122.817047,48.9439289,-122.497047,49.2639289]}
{"name":"Abbotsford","other_names":{"name:ru":"Абботсфорд","name:sr":"Аботсфорд","old_name":"Abbottsford","short_name":"Abby"},"display_name":"Abbotsford, Fraser Valley Regional District, British Columbia, Canada","address":{"city":"Abbotsford","county":"Fraser Valley Regional District","state":"British Columbia","ISO3166-2-lvl4":"CA-BC","country":"Canada","country_code":"ca"},"population":153524,"osm_type":"node","osm_id":52556180,"type":"city","location":[-122.329479,49.0521162],"bbox":[-122.489479,48.8921162,-122.169479,49.2121162]}
{"name":"Chilliwack","other_names":{"name:ru":"Чилливак","name:hur":"Ts'elxwéyeqw","alt_name:hur":"Ts'elxwíqw","name:pronunciation":"ˈtʃɪləwæk"},"display_name":"Chilliwack, Fraser Valley Regional District, British Columbia, Canada","address":{"city":"Chilliwack","county":"Fraser Valley Regional District","state":"British Columbia","ISO3166-2-lvl4":"CA-BC","country":"Canada","country_code":"ca"},"population":93203,"osm_type":"node","osm_id":282388860,"type":"city","location":[-121.95143,49.157677],"bbox":[-122.11143,48.997677,-121.79143,49.317677]}
{"name":"West Vancouver","other_names":{"name:zh-Hans":"西温哥华","name:zh-Hant":"西溫哥華"},"display_name":"West Vancouver, Metro Vancouver Regional District, British Columbia, Canada","address":{"city":"West Vancouver","county":"Metro Vancouver Regional District","state":"British Columbia","ISO3166-2-lvl4":"CA-BC","country":"Canada","country_code":"ca"},"population":44122,"osm_type":"node","osm_id":52556923,"type":"city","location":[-123.159479,49.3311208],"bbox":[-123.319479,49.1711208,-122.999479,49.4911208]}
{"name":"Vancouver","other_names":{"name:ar":"فانكوفر","name:bn":"বাংকূবর","name:en":"Vancouver","name:fa":"ونکوور","name:he":"ונקובר","name:hi":"वांकूवर","name:ja":"バンクーバー","name:kn":"ವಾಂಕೂವರ್","name:ko":"밴쿠버","name:oc":"Vancouver","name:ru":"Ванкувер","name:sr":"Ванкувер","name:uk":"Ванкувер","name:zh":"温哥华","name:ckb":"ڤانکوڤەر","name:lil":"pankʷúhp","name:squ":"K'emk'emeláy̓","name:zh-Hans":"温哥华","name:zh-Hant":"溫哥華"},"display_name":"Vancouver, Metro Vancouver Regional District, British Columbia, Canada","address":{"city":"Vancouver","county":"Metro Vancouver Regional District","state":"British Columbia","ISO3166-2-lvl4":"CA-BC","country":"Canada","country_code":"ca"},"population":662248,"osm_type":"node","osm_id":52553466,"type":"city","location":[-123.113952,49.2608724],"bbox":[-123.273952,49.1008724,-122.953952,49.4208724]}
{"name":"North Vancouver","other_names":{"name:zh-Hans":"北温哥华","name:zh-Hant":"北溫哥華"},"display_name":"North Vancouver, Metro Vancouver Regional District, British Columbia, Canada","address":{"city":"North Vancouver","county":"Metro Vancouver Regional District","state":"British Columbia","ISO3166-2-lvl4":"CA-BC","country":"Canada","country_code":"ca"},"osm_type":"node","osm_id":256631286,"type":"city","location":[-123.0737925,49.3206294],"bbox":[-123.2337925,49.1606294,-122.9137925,49.4806294]}
{"name":"Burnaby","other_names":{"name:sr":"Бернаби","name:etymology:wikipedia":"en:Robert Burnaby"},"display_name":"Burnaby, Metro Vancouver Regional District, British Columbia, Canada","address":{"city":"Burnaby","county":"Metro Vancouver Regional District","state":"British Columbia","ISO3166-2-lvl4":"CA-BC","country":"Canada","country_code":"ca"},"population":249125,"osm_type":"node","osm_id":52553508,"type":"city","location":[-122.972545,49.2433804],"bbox":[-123.132545,49.0833804,-122.812545,49.4033804]}
{"name":"Squamish","other_names":{"name:squ":"Sḵwx̱wú7mesh"},"display_name":"Squamish, Squamish-Lillooet Regional District, British Columbia, Canada","address":{"city":"Squamish","county":"Squamish-Lillooet Regional District","state":"British Columbia","ISO3166-2-lvl4":"CA-BC","country":"Canada","country_code":"ca"},"population":19512,"osm_type":"node","osm_id":5314450692,"type":"city","location":[-123.1558612,49.6980743],"bbox":[-123.3158612,49.5380743,-122.9958612,49.8580743]}
{"name":"Port Coquitlam","display_name":"Port Coquitlam, Metro Vancouver Regional District, British Columbia, Canada","address":{"city":"Port Coquitlam","county":"Metro Vancouver Regional District","state":"British Columbia","ISO3166-2-lvl4":"CA-BC","country":"Canada","country_code":"ca"},"population":61498,"osm_type":"node","osm_id":52556164,"type":"city","location":[-122.780542,49.2621643],"bbox":[-122.940542,49.1021643,-122.620542,49.4221643]}
{"name":"Port Moody","display_name":"Port Moody, Metro Vancouver Regional District, British Columbia, Canada","address":{"city":"Port Moody","county":"Metro Vancouver Regional District","state":"British Columbia","ISO3166-2-lvl4":"CA-BC","country":"Canada","country_code":"ca"},"population":33535,"osm_type":"node","osm_id":52556061,"type":"city","location":[-122.829342,49.2822243],"bbox":[-122.989342,49.1222243,-122.669342,49.4422243]}
{"name":"Coquitlam","display_name":"Coquitlam, Metro Vancouver Regional District, British Columbia, Canada","address":{"city":"Coquitlam","county":"Metro Vancouver Regional District","state":"British Columbia","ISO3166-2-lvl4":"CA-BC","country":"Canada","country_code":"ca"},"population":148625,"osm_type":"node","osm_id":1175773362,"type":"city","location":[-122.793281,49.2842958],"bbox":[-122.953281,49.1242958,-122.633281,49.4442958]}
{"name":"Maple Ridge","display_name":"Maple Ridge, Metro Vancouver Regional District, British Columbia, Canada","address":{"city":"Maple Ridge","county":"Metro Vancouver Regional District","state":"British Columbia","ISO3166-2-lvl4":"CA-BC","country":"Canada","country_code":"ca"},"population":90990,"osm_type":"node","osm_id":5319478139,"type":"city","location":[-122.599707,49.2197345],"bbox":[-122.759707,49.0597345,-122.439707,49.3797345]}
{"name":"Penticton","other_names":{"name:oka":"Sn̓pin̓tktn̓"},"display_name":"Penticton, Regional District of Okanagan-Similkameen, British Columbia, Canada","address":{"city":"Penticton","county":"Regional District of Okanagan-Similkameen","state":"British Columbia","ISO3166-2-lvl4":"CA-BC","country":"Canada","country_code":"ca"},"population":43313,"osm_type":"node","osm_id":3974322587,"type":"city","location":[-119.593249,49.5003268],"bbox":[-119.753249,49.3403268,-119.433249,49.6603268]}
{"name":"West Kelowna","display_name":"West Kelowna, Regional District of Central Okanagan, British Columbia, Canada","address":{"city":"West Kelowna","county":"Regional District of Central Okanagan","state":"British Columbia","ISO3166-2-lvl4":"CA-BC","country":"Canada","country_code":"ca"},"population":36078,"osm_type":"node","osm_id":352987002,"type":"city","location":[-119.582876,49.8585784],"bbox":[-119.742876,49.6985784,-119.422876,50.0185784]}
{"name":"Merritt","display_name":"Merritt, Thompson-Nicola Regional District, British Columbia, Canada","address":{"city":"Merritt","county":"Thompson-Nicola Regional District","state":"British Columbia","ISO3166-2-lvl4":"CA-BC","country":"Canada","country_code":"ca"},"osm_type":"node","osm_id":6141632291,"type":"city","location":[-120.7884149,50.1124876],"bbox":[-120.9484149,49.9524876,-120.6284149,50.2724876]}
{"name":"Kelowna","other_names":{"name:en":"Kelowna","name:ru":"Келоуна","name:uk":"Келоуна"},"display_name":"Kelowna, Regional District of Central Okanagan, British Columbia, Canada","address":{"city":"Kelowna","county":"Regional District of Central Okanagan","state":"British Columbia","ISO3166-2-lvl4":"CA-BC","country":"Canada","country_code":"ca"},"population":144576,"osm_type":"node","osm_id":5340041036,"type":"city","location":[-119.495902,49.8879177],"bbox":[-119.655902,49.7279177,-119.335902,50.0479177]}
{"name":"Vernon","display_name":"Vernon, Regional District of North Okanagan, British Columbia, Canada","address":{"city":"Vernon","county":"Regional District of North Okanagan","state":"British Columbia","ISO3166-2-lvl4":"CA-BC","country":"Canada","country_code":"ca"},"osm_type":"node","osm_id":51973182,"type":"city","location":[-119.2718157,50.2668671],"bbox":[-119.4318157,50.1068671,-119.1118157,50.4268671]}
{"name":"Trail","display_name":"Trail, Regional District of Kootenay Boundary, British Columbia, Canada","address":{"city":"Trail","county":"Regional District of Kootenay Boundary","state":"British Columbia","ISO3166-2-lvl4":"CA-BC","country":"Canada","country_code":"ca"},"osm_type":"node","osm_id":10297535677,"type":"city","location":[-117.7097659,49.0945296],"bbox":[-117.8697659,48.9345296,-117.5497659,49.2545296]}
{"name":"Castlegar","display_name":"Castlegar, Regional District of Central Kootenay, British Columbia, Canada","address":{"city":"Castlegar","county":"Regional District of Central Kootenay","state":"British Columbia","ISO3166-2-lvl4":"CA-BC","country":"Canada","country_code":"ca"},"osm_type":"node","osm_id":51971904,"type":"city","location":[-117.663574,49.316171],"bbox":[-117.823574,49.156171,-117.503574,49.476171]}
{"name":"Nelson","display_name":"Nelson, Regional District of Central Kootenay, British Columbia, Canada","address":{"city":"Nelson","county":"Regional District of Central Kootenay","state":"British Columbia","ISO3166-2-lvl4":"CA-BC","country":"Canada","country_code":"ca"},"osm_type":"node","osm_id":51971055,"type":"city","location":[-117.290039,49.494891],"bbox":[-117.450039,49.334891,-117.130039,49.654891]}
{"name":"Kimberley","display_name":"Kimberley, Regional District of East Kootenay, British Columbia, Canada","address":{"city":"Kimberley","county":"Regional District of East Kootenay","state":"British Columbia","ISO3166-2-lvl4":"CA-BC","country":"Canada","country_code":"ca"},"osm_type":"node","osm_id":51969937,"type":"city","location":[-115.9819477,49.6850876],"bbox":[-116.1419477,49.5250876,-115.8219477,49.8450876]}
{"name":"Cranbrook","other_names":{"name:en":"Cranbrook","name:ru":"Кранбрук","alt_name:ru":"Крэнбрук"},"display_name":"Cranbrook, Regional District of East Kootenay, British Columbia, Canada","address":{"city":"Cranbrook","county":"Regional District of East Kootenay","state":"British Columbia","ISO3166-2-lvl4":"CA-BC","country":"Canada","country_code":"ca"},"osm_type":"node","osm_id":51969524,"type":"city","location":[-115.7672772,49.5107477],"bbox":[-115.9272772,49.3507477,-115.6072772,49.6707477]}
{"name":"Fernie","display_name":"Fernie, Regional District of East Kootenay, British Columbia, Canada","address":{"city":"Fernie","county":"Regional District of East Kootenay","state":"British Columbia","ISO3166-2-lvl4":"CA-BC","country":"Canada","country_code":"ca"},"osm_type":"node","osm_id":51969585,"type":"city","location":[-115.062867,49.5041747],"bbox":[-115.222867,49.3441747,-114.902867,49.6641747]}
{"name":"Lethbridge","other_names":{"name:en":"Lethbridge","name:ru":"Летбридж","name:uk":"Летбрідж"},"display_name":"Lethbridge, Alberta, Canada","address":{"city":"Lethbridge","state":"Alberta","ISO3166-2-lvl4":"CA-AB","country":"Canada","country_code":"ca"},"population":83517,"osm_type":"node","osm_id":3104956255,"type":"city","location":[-112.8331033,49.6945782],"bbox":[-112.9931033,49.5345782,-112.6731033,49.8545782]}
{"name":"Williams Lake","other_names":{"name:en":"Williams Lake","name:ru":"Уильямс-Лейк"},"display_name":"Williams Lake, Cariboo Regional District, British Columbia, Canada","address":{"city":"Williams Lake","county":"Cariboo Regional District","state":"British Columbia","ISO3166-2-lvl4":"CA-BC","country":"Canada","country_code":"ca"},"population":10753,"osm_type":"node","osm_id":52556274,"type":"city","location":[-122.1397259,52.1292657],"bbox":[-122.2997259,51.9692657,-121.9797259,52.2892657]}
{"name":"Quesnel","other_names":{"name:pronunciation":"kwɪˈnɛl"},"display_name":"Quesnel, Cariboo Regional District, British Columbia, Canada","address":{"city":"Quesnel","county":"Cariboo Regional District","state":"British Columbia","ISO3166-2-lvl4":"CA-BC","country":"Canada","country_code":"ca"},"population":10007,"osm_type":"node","osm_id":52553641,"type":"city","location":[-122.493627,52.9794279],"bbox":[-122.653627,52.8194279,-122.333627,53.1394279]}
{"name":"Kamloops","other_names":{"name:en":"Kamloops","name:ru":"Камлупс","name:uk":"Камлупс","name:zh":"甘露市"},"display_name":"Kamloops, Thompson-Nicola Regional District, British Columbia, Canada","address":{"city":"Kamloops","county":"Thompson-Nicola Regional District","state":"British Columbia","ISO3166-2-lvl4":"CA-BC","country":"Canada","country_code":"ca"},"population":90280,"osm_type":"node","osm_id":1439329973,"type":"city","location":[-120.339415,50.6758269],"bbox":[-120.499415,50.5158269,-120.179415,50.8358269]}
{"name":"Revelstoke","display_name":"Revelstoke, Columbia-Shuswap Regional District, British Columbia, Canada","address":{"city":"Revelstoke","county":"Columbia-Shuswap Regional District","state":"British Columbia","ISO3166-2-lvl4":"CA-BC","country":"Canada","country_code":"ca"},"osm_type":"node","osm_id":5573848015,"type":"city","location":[-118.1956709,50.998045],"bbox":[-118.3556709,50.838045,-118.0356709,51.158045]}
{"name":"Prince George","other_names":{"name:en":"Prince George","name:ru":"Принс-Джордж","name:uk":"Прінс-Джордж"},"display_name":"Prince George, Regional District of Fraser-Fort George, British Columbia, Canada","address":{"city":"Prince George","county":"Regional District of Fraser-Fort George","state":"British Columbia","ISO3166-2-lvl4":"CA-BC","country":"Canada","country_code":"ca"},"population":71974,"osm_type":"node","osm_id":33308006,"type":"city","location":[-122.7453699,53.9128645],"bbox":[-122.9053699,53.7528645,-122.5853699,54.0728645]}
{"name":"Dawson Creek","other_names":{"name:en":"Dawson Creek","name:ru":"Досон-Крик","name:uk":"Досон-Крік"},"display_name":"Dawson Creek, Peace River Regional District, British Columbia, Canada","address":{"city":"Dawson Creek","county":"Peace River Regional District","state":"British Columbia","ISO3166-2-lvl4":"CA-BC","country":"Canada","country_code":"ca"},"population":11583,"osm_type":"node","osm_id":1141667381,"type":"city","location":[-120.2364453,55.7605306],"bbox":[-120.3964453,55.6005306,-120.0764453,55.9205306]}
{"name":"Grande Prairie","other_names":{"name:en":"Grande Prairie","name:ru":"Гранд-Прери","name:uk":"Гранд-Прері"},"display_name":"Grande Prairie, Alberta, Canada","address":{"city":"Grande Prairie","state":"Alberta","ISO3166-2-lvl4":"CA-AB","country":"Canada","country_code":"ca"},"population":63166,"osm_type":"node","osm_id":2079157918,"type":"city","location":[-118.7949873,55.17108],"bbox":[-118.9549873,55.01108,-118.6349873,55.33108]}
{"name":"Airdrie","display_name":"Airdrie, Alberta, Canada","address":{"city":"Airdrie","state":"Alberta","ISO3166-2-lvl4":"CA-AB","country":"Canada","country_code":"ca"},"population":54891,"osm_type":"node","osm_id":26878229,"type":"city","location":[-114.01062,51.28597],"bbox":[-114.17062,51.12597,-113.85062,51.44597]}
{"name":"Calgary","other_names":{"name:ar":"كالجاري","name:cr":"ᐅᑑᐢᑿᓂᕽ","name:en":"Calgary","name:eo":"Kalgario","name:fa":"کلگری","name:fr":"Calgary","name:pt":"Calgary","name:ru":"Калгари","name:tt":"Кәлгари","name:uk":"Калґарі","name:zh":"卡尔加里","name:bla":"Mohkínstsis","name:ckb":"کالگاری","name:den":"Klincho-tinay-indihay","name:srs":"Guts’ists’i","name:sto":"Wincheesh-pah","name:cr-sro":"otôskwanihk","alt_name:bla":"Mohkínstsis akápiyoyis","name:zh-Hant":"卡加利"},"display_name":"Calgary, Alberta, Canada","address":{"city":"Calgary","state":"Alberta","ISO3166-2-lvl4":"CA-AB","country":"Canada","country_code":"ca"},"population":1267344,"osm_type":"node","osm_id":4511426446,"type":"city","location":[-114.0575418,51.0456064],"bbox":[-114.2175418,50.8856064,-113.8975418,51.2056064]}
{"name":"Red Deer","other_names":{"name:en":"Red Deer","name:ru":"Ред-Дир","name:uk":"Ред-Дір"},"display_name":"City of Red Deer, Alberta, Canada","address":{"city":"City of Red Deer","state":"Alberta","ISO3166-2-lvl4":"CA-AB","country":"Canada","country_code":"ca"},"population":100418,"osm_type":"node","osm_id":29576831,"type":"city","location":[-113.8141464,52.2690628],"bbox":[-113.9741464,52.1090628,-113.6541464,52.4290628]}
{"name":"Lacombe","display_name":"City of Lacombe, Alberta, Canada","address":{"city":"City of Lacombe","state":"Alberta","ISO3166-2-lvl4":"CA-AB","country":"Canada","country_code":"ca"},"population":13057,"osm_type":"node","osm_id":1328293032,"type":"city","location":[-113.733215,52.4727515],"bbox":[-113.893215,52.3127515,-113.573215,52.6327515]}
{"name":"Wetaskiwin","other_names":{"name:en":"Wetaskiwin","name:ru":"Ветаскивин","name:uk":"Ветасківін"},"display_name":"City of Wetaskiwin, Wetaskiwin, Alberta, Canada","address":{"city":"City of Wetaskiwin","county":"Wetaskiwin","state":"Alberta","ISO3166-2-lvl4":"CA-AB","country":"Canada","country_code":"ca"},"osm_type":"node","osm_id":1858146408,"type":"city","location":[-113.36792,52.968492],"bbox":[-113.52792,52.808492,-113.20792,53.128492]}
{"name":"Leduc","display_name":"City of Leduc, Division No. 11, Alberta, Canada","address":{"city":"City of Leduc","county":"Division No. 11","state":"Alberta","ISO3166-2-lvl4":"CA-AB","country":"Canada","country_code":"ca"},"population":31130,"osm_type":"node","osm_id":51971888,"type":"city","location":[-113.5511681,53.2607825],"bbox":[-113.7111681,53.1007825,-113.3911681,53.4207825]}
{"name":"Camrose","other_names":{"name:en":"Camrose","name:ru":"Камроуз","old_name":"Sparling"},"display_name":"Camrose, Alberta, Canada","address":{"city":"Camrose","state":"Alberta","ISO3166-2-lvl4":"CA-AB","country":"Canada","country_code":"ca"},"population":15850,"osm_type":"node","osm_id":51972747,"type":"city","location":[-112.840576,53.013131],"bbox":[-113.000576,52.853131,-112.680576,53.173131]}
{"name":"Spruce Grove","display_name":"City of Spruce Grove, Alberta, Canada","address":{"city":"City of Spruce Grove","state":"Alberta","ISO3166-2-lvl4":"CA-AB","country":"Canada","country_code":"ca"},"population":37645,"osm_type":"node","osm_id":51971756,"type":"city","location":[-113.903503,53.545204],"bbox":[-114.063503,53.385204,-113.743503,53.705204]}
{"name":"St. Albert","display_name":"St. Albert, Alberta, Canada","address":{"city":"St. Albert","state":"Alberta","ISO3166-2-lvl4":"CA-AB","country":"Canada","country_code":"ca"},"population":61466,"osm_type":"node","osm_id":51969555,"type":"city","location":[-113.628845,53.633239],"bbox":[-113.788845,53.473239,-113.468845,53.793239]}
{"name":"Edmonton","other_names":{"name:ar":"إدمونتون","name:cr":"ᐊᒥᐢᑿᒌᐚᐢᑲᐦᐃᑲᐣ","name:de":"Edmonton","name:en":"Edmonton","name:eu":"Edmonton","name:fr":"Edmonton","name:ja":"エドモントン市","name:ko":"에드먼턴","name:ru":"Эдмонтон","name:uk":"Едмонтон","name:bla":"Omahkoyisi","name:chp":"Kuę́ Nedhé","name:srs":"Nasagachoo","name:sto":"Tiʔoda","name:yue":"愛民頓","name:cr-Latn":"Amiskwacîwâskahikan","name:ja-Latn":"Edomonton-shi","name:ko-Latn":"Edeumeonteon","name:zh-Hant":"埃德蒙頓市","name:zh-Latn-pinyin":"Āidéméngdùn-shì"},"display_name":"Edmonton, Division No. 11, Alberta, T5J 0G8, Canada","address":{"city":"Edmonton","county":"Division No. 11","state":"Alberta","ISO3166-2-lvl4":"CA-AB","postcode":"T5J 0G8","country":"Canada","country_code":"ca"},"population":928182,"osm_type":"node","osm_id":29811182,"type":"city","location":[-113.491241,53.5462055],"bbox":[-113.651241,53.3862055,-113.331241,53.7062055]}
{"name":"Sherwood Park","display_name":"Sherwood Park, Strathcona County, Alberta, Canada","address":{"city":"Sherwood Park","county":"Strathcona County","state":"Alberta","ISO3166-2-lvl4":"CA-AB","country":"Canada","country_code":"ca"},"population":73000,"osm_type":"node","osm_id":51969716,"type":"city","location":[-113.296631,53.5256963],"bbox":[-113.456631,53.3656963,-113.136631,53.6856963]}
{"name":"Fort Saskatchewan","display_name":"Fort Saskatchewan, Alberta, Canada","address":{"city":"Fort Saskatchewan","state":"Alberta","ISO3166-2-lvl4":"CA-AB","country":"Canada","country_code":"ca"},"population":24149,"osm_type":"node","osm_id":51969946,"type":"city","location":[-113.2148942,53.7128571],"bbox":[-113.3748942,53.5528571,-113.0548942,53.8728571]}
{"name":"Fort St. John","other_names":{"name:en":"Fort St. John","name:ru":"Форт-Сент-Джон","name:uk":"Форт-Сент-Джон"},"display_name":"Fort St. John, Peace River Regional District, British Columbia, Canada","address":{"city":"Fort St. John","county":"Peace River Regional District","state":"British Columbia","ISO3166-2-lvl4":"CA-BC","country":"Canada","country_code":"ca"},"population":18609,"osm_type":"node","osm_id":2865722923,"type":"city","location":[-120.846943,56.2524039],"bbox":[-121.006943,56.0924039,-120.686943,56.4124039]}
{"name":"Yellowknife","other_names":{"name:ar":"يلونايف","name:en":"Yellowknife","name:lt":"Jelounaifas","name:ru":"Йеллоунайф","name:uk":"Єллоунайф","name:zh":"黄刀镇（耶洛奈夫）","name:ckb":"یەڵۆنایف","name:dgr":"Sǫ̀mbak’è"},"display_name":"Yellowknife, North Slave Region, Northwest Territories, X1A, Canada","address":{"city":"Yellowknife","county":"North Slave Region","state":"Northwest Territories","ISO3166-2-lvl4":"CA-NT","postcode":"X1A","country":"Canada","country_code":"ca"},"population":19234,"osm_type":"node","osm_id":2903625031,"type":"city","location":[-114.377385,62.4540807],"bbox":[-114.537385,62.2940807,-114.217385,62.6140807]}
{"name":"Brooks","display_name":"Brooks, City of Brooks, Alberta, Canada","address":{"city":"Brooks","county":"City of Brooks","state":"Alberta","ISO3166-2-lvl4":"CA-AB","country":"Canada","country_code":"ca"},"population":11604,"osm_type":"node","osm_id":29660373,"type":"city","location":[-111.893005,50.571027],"bbox":[-112.053005,50.411027,-111.733005,50.731027]}
{"name":"Medicine Hat","other_names":{"name:en":"Medicine Hat","name:ru":"Медисин-Хат","name:uk":"Медисин-Гет"},"display_name":"Medicine Hat, Alberta, Canada","address":{"city":"Medicine Hat","state":"Alberta","ISO3166-2-lvl4":"CA-AB","country":"Canada","country_code":"ca"},"population":56997,"osm_type":"node","osm_id":29660485,"type":"city","location":[-110.679016,50.04303],"bbox":[-110.839016,49.88303,-110.519016,50.20303]}
{"name":"Swift Current","other_names":{"name:en":"Swift Current","name:uk":"Свіфт-Керрент"},"display_name":"Swift Current, Saskatchewan, Canada","address":{"city":"Swift Current","county":"Swift Current","state":"Saskatchewan","ISO3166-2-lvl4":"CA-SK","country":"Canada","country_code":"ca"},"population":15503,"osm_type":"node","osm_id":52289270,"type":"city","location":[-107.7984496,50.2849138],"bbox":[-107.9584496,50.1249138,-107.6384496,50.4449138]}
{"name":"Moose Jaw","other_names":{"name:ar":"موسجاو","name:cr":"ᒨᓱ ᑖᐱᐢᑲᓂᕽ","name:en":"Moose Jaw","name:fa":"موس جاو","name:he":"מוס ג'ו","name:ko":"무스조","name:ru":"Мус-Джо","name:uk":"Мус-Джо","name:zh":"穆斯乔","name:crk":"môso-tâpiskanihk"},"display_name":"Moose Jaw, Division No. 7, Saskatchewan, Canada","address":{"city":"Moose Jaw","county":"Division No. 7","state":"Saskatchewan","ISO3166-2-lvl4":"CA-SK","country":"Canada","country_code":"ca"},"population":33890,"osm_type":"node","osm_id":52290380,"type":"city","location":[-105.542908,50.401515],"bbox":[-105.702908,50.241515,-105.382908,50.561515]}
{"name":"Regina","other_names":{"name:ar":"ريجينا","name:en":"Regina","name:ku":"Rêcîna","name:ru":"Реджайна","name:ckb":"ڕێجینا"},"display_name":"Regina, Division No. 6, Saskatchewan, Canada","address":{"city":"Regina","county":"Division No. 6","state":"Saskatchewan","ISO3166-2-lvl4":"CA-SK","country":"Canada","country_code":"ca"},"population":215106,"osm_type":"node","osm_id":26726183,"type":"city","location":[-104.61731,50.44876],"bbox":[-104.77731,50.28876,-104.45731,50.60876]}
{"name":"Estevan","display_name":"Estevan, Division No. 1, Saskatchewan, Canada","address":{"city":"Estevan","county":"Division No. 1","state":"Saskatchewan","ISO3166-2-lvl4":"CA-SK","country":"Canada","country_code":"ca"},"population":11054,"osm_type":"node","osm_id":52288505,"type":"city","location":[-102.9910752,49.1428076],"bbox":[-103.1510752,48.9828076,-102.8310752,49.3028076]}
{"name":"Weyburn","other_names":{"name:ar":"ويبرن","name:fa":"ویبرن","name:he":"וויברן","name:ko":"웨이번","name:ru":"Уэйберн","name:sr":"Вејберн"},"display_name":"Weyburn, Division No. 2, Saskatchewan, Canada","address":{"city":"Weyburn","county":"Division No. 2","state":"Saskatchewan","ISO3166-2-lvl4":"CA-SK","country":"Canada","country_code":"ca"},"population":10484,"osm_type":"node","osm_id":52288814,"type":"city","location":[-103.854034,49.6651238],"bbox":[-104.014034,49.5051238,-103.694034,49.8251238]}
{"name":"Lloydminster","display_name":"City of Lloydminster, Division No. 17, Saskatchewan, Canada","address":{"city":"City of Lloydminster","county":"Division No. 17","state":"Saskatchewan","ISO3166-2-lvl4":"CA-SK","country":"Canada","country_code":"ca"},"osm_type":"node","osm_id":51971436,"type":"city","location":[-110.00885,53.279995],"bbox":[-110.16885,53.119995,-109.84885,53.439995]}
{"name":"North Battleford","other_names":{"name:cr":"ᓅᑎᓂᑐ ᓰᐲᕽ","name:en":"North Battleford","name:ru":"Норт-Бетлфорд","name:uk":"Норт-Бетлфорд","name:asb":"Ogíciza Wakpá","name:crk":"nôtinito-sîpîhk"},"display_name":"North Battleford, Division No. 16, Saskatchewan, Canada","address":{"city":"North Battleford","county":"Division No. 16","state":"Saskatchewan","ISO3166-2-lvl4":"CA-SK","country":"Canada","country_code":"ca"},"population":13888,"osm_type":"node","osm_id":52304529,"type":"city","location":[-108.300476,52.776186],"bbox":[-108.460476,52.616186,-108.140476,52.936186]}
{"name":"Cold Lake","display_name":"City of Cold Lake, Alberta, Canada","address":{"city":"City of Cold Lake","state":"Alberta","ISO3166-2-lvl4":"CA-AB","country":"Canada","country_code":"ca"},"population":11595,"osm_type":"node","osm_id":51972638,"type":"city","location":[-110.192871,54.46046],"bbox":[-110.352871,54.30046,-110.032871,54.62046]}
{"name":"Meadow Lake","other_names":{"name:cr":"ᐸᐢᒁᐏ ᓵᑲᐦᐃᑲᓂᕽ","name:cr-Latn":"paskwâwi-sâkahikanihk"},"display_name":"Meadow Lake, Division No. 17, Saskatchewan, Canada","address":{"city":"Meadow Lake","county":"Division No. 17","state":"Saskatchewan","ISO3166-2-lvl4":"CA-SK","country":"Canada","country_code":"ca"},"osm_type":"node","osm_id":52288372,"type":"city","location":[-108.435059,54.13026],"bbox":[-108.595059,53.97026,-108.275059,54.29026]}
{"name":"Saskatoon","other_names":{"name:ar":"ساسكاتون","name:en":"Saskatoon","name:lt":"Saskatūnas","name:ru":"Саскатун","name:uk":"Саскатун"},"display_name":"Saskatoon, Division No. 11, Saskatchewan, Canada","address":{"city":"Saskatoon","county":"Division No. 11","state":"Saskatchewan","ISO3166-2-lvl4":"CA-SK","country":"Canada","country_code":"ca"},"population":246376,"osm_type":"node","osm_id":26621545,"type":"city","location":[-106.660767,52.131802],"bbox":[-106.820767,51.971802,-106.500767,52.291802]}
{"name":"Prince Albert","display_name":"Prince Albert, Division No. 15, Saskatchewan, Canada","address":{"city":"Prince Albert","county":"Division No. 15","state":"Saskatchewan","ISO3166-2-lvl4":"CA-SK","country":"Canada","country_code":"ca"},"population":35129,"osm_type":"node","osm_id":52304593,"type":"city","location":[-105.748901,53.201097],"bbox":[-105.908901,53.041097,-105.588901,53.361097]}
{"name":"Humboldt","display_name":"Humboldt, Division No. 15, Saskatchewan, Canada","address":{"city":"Humboldt","county":"Division No. 15","state":"Saskatchewan","ISO3166-2-lvl4":"CA-SK","country":"Canada","country_code":"ca"},"population":5678,"osm_type":"node","osm_id":52289898,"type":"city","location":[-105.1230368,52.202009],"bbox":[-105.2830368,52.042009,-104.9630368,52.362009]}
{"name":"Melfort","display_name":"Melfort, Division No. 14, Saskatchewan, Canada","address":{"city":"Melfort","county":"Division No. 14","state":"Saskatchewan","ISO3166-2-lvl4":"CA-SK","country":"Canada","country_code":"ca"},"osm_type":"node","osm_id":1174751814,"type":"city","location":[-104.6135544,52.8613707],"bbox":[-104.7735544,52.7013707,-104.4535544,53.0213707]}
{"name":"Melville","other_names":{"name:ar":"ميلفيل","name:fa":"ملویل","name:he":"מלוויל","name:ru":"Мелвилл","name:uk":"Мелвілл"},"display_name":"Melville, Division No. 5, Saskatchewan, Canada","address":{"city":"Melville","county":"Division No. 5","state":"Saskatchewan","ISO3166-2-lvl4":"CA-SK","country":"Canada","country_code":"ca"},"population":4562,"osm_type":"node","osm_id":4483030699,"type":"city","location":[-102.807296,50.9307241],"bbox":[-102.967296,50.7707241,-102.647296,51.0907241]}
{"name":"Yorkton","other_names":{"name:en":"Yorkton","name:ru":"Йорктон","name:uk":"Йорктон"},"display_name":"Yorkton, Division No. 9, Saskatchewan, Canada","address":{"city":"Yorkton","county":"Division No. 9","state":"Saskatchewan","ISO3166-2-lvl4":"CA-SK","country":"Canada","country_code":"ca"},"population":15669,"osm_type":"node","osm_id":30002543,"type":"city","location":[-102.461243,51.212045],"bbox":[-102.621243,51.052045,-102.301243,51.372045]}
{"name":"Flin Flon","other_names":{"name:en":"Flin Flon","name:ru":"Флин-Флон","name:uk":"Флін-Флон"},"display_name":"Flin Flon, Unorganized Division No. 21, Division No. 21, Manitoba, R8A 1J8, Canada","address":{"city":"Flin Flon","county":"Division No. 21","state":"Manitoba","ISO3166-2-lvl4":"CA-MB","postcode":"R8A 1J8","country":"Canada","country_code":"ca"},"population":5363,"osm_type":"node","osm_id":52562631,"type":"city","location":[-101.878967,54.769801],"bbox":[-102.038967,54.609801,-101.718967,54.929801]}
{"name":"Brandon","other_names":{"name:en":"Brandon","name:ru":"Брендон","name:uk":"Брендон","name:zh":"布兰登"},"display_name":"Brandon, Division No. 7, Manitoba, Canada","address":{"city":"Brandon","county":"Division No. 7","state":"Manitoba","ISO3166-2-lvl4":"CA-MB","country":"Canada","country_code":"ca"},"population":46061,"osm_type":"node","osm_id":1260368487,"type":"city","location":[-99.9608924,49.8511143],"bbox":[-100.1208924,49.6911143,-99.8008924,50.0111143]}
{"name":"Morden","display_name":"Morden, Division No. 3, Manitoba, Canada","address":{"city":"Morden","county":"Division No. 3","state":"Manitoba","ISO3166-2-lvl4":"CA-MB","country":"Canada","country_code":"ca"},"population":7812,"osm_type":"node","osm_id":52562266,"type":"city","location":[-98.1014567,49.1927055],"bbox":[-98.2614567,49.0327055,-97.9414567,49.3527055]}
{"name":"Winkler","other_names":{"name:uk":"Вінклер"},"display_name":"Winkler, Division No. 3, Manitoba, Canada","address":{"city":"Winkler","county":"Division No. 3","state":"Manitoba","ISO3166-2-lvl4":"CA-MB","country":"Canada","country_code":"ca"},"population":10670,"osm_type":"node","osm_id":52561496,"type":"city","location":[-97.937622,49.187089],"bbox":[-98.097622,49.027089,-97.777622,49.347089]}
{"name":"Winnipeg","other_names":{"name:ar":"وينيبج","name:cr":"ᐑᓂᐯᐠ","name:de":"Winnipeg","name:en":"Winnipeg","name:fa":"وینیپگ","name:he":"ויניפג","name:ru":"Виннипег","name:uk":"Вінніпег","name:ckb":"وینیپێگ","alt_name:uk":"Вінніпеґ","name:cr-SRO":"wînipêk"},"display_name":"Winnipeg, Division No. 11, Manitoba, Canada","address":{"city":"Winnipeg","county":"Division No. 11","state":"Manitoba","ISO3166-2-lvl4":"CA-MB","country":"Canada","country_code":"ca"},"population":663617,"osm_type":"node","osm_id":52561531,"type":"city","location":[-97.1384584,49.8955367],"bbox":[-97.2984584,49.7355367,-96.9784584,50.0555367]}
{"name":"Portage la Prairie","other_names":{"name:en":"Portage la Prairie","name:uk":"Портедж-ла-Прері"},"display_name":"Portage la Prairie, Division No. 9, Manitoba, Canada","address":{"city":"Portage la Prairie","county":"Division No. 9","state":"Manitoba","ISO3166-2-lvl4":"CA-MB","country":"Canada","country_code":"ca"},"population":12996,"osm_type":"node","osm_id":1260368503,"type":"city","location":[-98.289185,49.972422],"bbox":[-98.449185,49.812422,-98.129185,50.132422]}
{"name":"Steinbach","other_names":{"name:en":"Steinbach","name:ru":"Стейнбах","name:uk":"Стайнбек"},"display_name":"Steinbach, Division No. 2, Manitoba, Canada","address":{"city":"Steinbach","county":"Division No. 2","state":"Manitoba","ISO3166-2-lvl4":"CA-MB","country":"Canada","country_code":"ca"},"population":13524,"osm_type":"node","osm_id":1222724072,"type":"city","location":[-96.69342,49.530557],"bbox":[-96.85342,49.370557,-96.53342,49.690557]}
{"name":"Selkirk","other_names":{"name:uk":"Селкірк"},"display_name":"Selkirk, Division No. 13, Manitoba, Canada","address":{"city":"Selkirk","county":"Division No. 13","state":"Manitoba","ISO3166-2-lvl4":"CA-MB","country":"Canada","country_code":"ca"},"population":9834,"osm_type":"node","osm_id":28859163,"type":"city","location":[-96.880188,50.146986],"bbox":[-97.040188,49.986986,-96.720188,50.306986]}
{"name":"Kenora","other_names":{"name:ar":"كينورا","name:cr":"ᐘᒐᐢᐠ ᐅᓂᑳᐦᐱᕽ","name:en":"Kenora","name:fa":"کنورا","name:he":"קנורה","name:oj":"Wazhashk-Onigamiing","name:ru":"Кенора","name:uk":"Кенора","old_name":"Rat Portage","name:cr-SRO":"wacask-onikâhpihk","old_name:uk":"Рат Портаж"},"display_name":"Kenora, Kenora District, Northwestern Ontario, Ontario, Canada","address":{"city":"Kenora","county":"Kenora District","state_district":"Northwestern Ontario","state":"Ontario","ISO3166-2-lvl4":"CA-ON","country":"Canada","country_code":"ca"},"population":15348,"osm_type":"node","osm_id":1410097893,"type":"city","location":[-94.4893528,49.766215],"bbox":[-94.6493528,49.606215,-94.3293528,49.926215]}
{"name":"Dryden","other_names":{"name:en":"Dryden","name:ru":"Драйден","name:uk":"Драйден"},"display_name":"Dryden, Kenora District, Northwestern Ontario, Ontario, Canada","address":{"city":"Dryden","county":"Kenora District","state_district":"Northwestern Ontario","state":"Ontario","ISO3166-2-lvl4":"CA-ON","country":"Canada","country_code":"ca"},"population":7617,"osm_type":"node","osm_id":107364606,"type":"city","location":[-92.835846,49.785698],"bbox":[-92.995846,49.625698,-92.675846,49.945698]}
{"name":"Dauphin","other_names":{"name:en":"Dauphin","name:ru":"Дофин","name:uk":"Дофін"},"display_name":"Dauphin, Division No. 17, Manitoba, Canada","address":{"city":"Dauphin","county":"Division No. 17","state":"Manitoba","ISO3166-2-lvl4":"CA-MB","country":"Canada","country_code":"ca"},"population":8251,"osm_type":"node","osm_id":52561176,"type":"city","location":[-100.04425,51.153509],"bbox":[-100.20425,50.993509,-99.88425,51.313509]}
{"name":"Thompson","other_names":{"name:en":"Thompson","name:ru":"Томпсон","name:uk":"Томпсон"},"display_name":"Thompson, Division No. 22, Manitoba, Canada","address":{"city":"Thompson","county":"Division No. 22","state":"Manitoba","ISO3166-2-lvl4":"CA-MB","country":"Canada","country_code":"ca"},"population":12829,"osm_type":"node","osm_id":1461491316,"type":"city","location":[-97.863464,55.743347],"bbox":[-98.023464,55.583347,-97.703464,55.903347]}
{"name":"Fort McMurray","other_names":{"name:en":"Fort McMurray","name:ru":"Форт-МакМеррей","name:uk":"Форт-МакМеррей"},"display_name":"Fort McMurray, Wood Buffalo, Alberta, Canada","address":{"city":"Fort McMurray","county":"Wood Buffalo","state":"Alberta","ISO3166-2-lvl4":"CA-AB","country":"Canada","country_code":"ca"},"population":66573,"osm_type":"node","osm_id":445973270,"type":"city","location":[-111.3885221,56.7291997],"bbox":[-111.5485221,56.5691997,-111.2285221,56.8891997]}
{"name":"Churchill","other_names":{"name:iu":"ᑯᒡᔪᐊᖅ","name:ru":"Черчилл","name:uk":"Черчилл","name:iu-Latn":"Kuugjuaq"},"display_name":"Churchill, Division No. 23, Manitoba, Canada","address":{"city":"Churchill","county":"Division No. 23","state":"Manitoba","ISO3166-2-lvl4":"CA-MB","country":"Canada","country_code":"ca"},"population":899,"osm_type":"node","osm_id":1480760988,"type":"city","location":[-94.1736843,58.7693101],"bbox":[-94.3336843,58.6093101,-94.0136843,58.9293101]}
{"name":"Windsor","other_names":{"name:he":"וינדזור","name:ru":"Виндзор"},"display_name":"Windsor, Ontario, N9A 1B2, Canada","address":{"city":"Windsor","county":"Windsor","state":"Ontario","ISO3166-2-lvl4":"CA-ON","postcode":"N9A 1B2","country":"Canada","country_code":"ca"},"population":217188,"osm_type":"node","osm_id":253421090,"type":"city","location":[-83.0373389,42.3167397],"bbox":[-83.1973389,42.1567397,-82.8773389,42.4767397]}
{"name":"Chatham","display_name":"Chatham, Chatham-Kent, Ontario, N7L 1S4, Canada","address":{"city":"Chatham","county":"Chatham-Kent","state":"Ontario","ISO3166-2-lvl4":"CA-ON","postcode":"N7L 1S4","country":"Canada","country_code":"ca"},"population":103671,"osm_type":"node","osm_id":254447287,"type":"city","location":[-82.1853837,42.4057219],"bbox":[-82.3453837,42.2457219,-82.0253837,42.5657219]}
{"name":"Sarnia","other_names":{"name:ar":"سارنيا"},"display_name":"Sarnia, Lambton County, Ontario, Canada","address":{"city":"Sarnia","county":"Lambton County","state":"Ontario","ISO3166-2-lvl4":"CA-ON","country":"Canada","country_code":"ca"},"population":72366,"osm_type":"node","osm_id":21588608,"type":"city","location":[-82.403533,42.9743821],"bbox":[-82.563533,42.8143821,-82.243533,43.1343821]}
{"name":"St. Thomas","display_name":"St. Thomas, Ontario, Canada","address":{"city":"St. Thomas","state":"Ontario","ISO3166-2-lvl4":"CA-ON","country":"Canada","country_code":"ca"},"population":41813,"osm_type":"node","osm_id":1610810050,"type":"city","location":[-81.1929882,42.779022],"bbox":[-81.3529882,42.619022,-81.0329882,42.939022]}
{"name":"London","other_names":{"name:ar":"لندن","name:be":"Лондан","name:bn":"লন্ডন","name:cr":"ᓬᐊᐣᑕᐣ","name:el":"Λόντον","name:en":"London","name:fa":"لندن","name:fr":"London","name:ga":"Londain","name:he":"לונדון","name:hy":"Լոնտոն","name:iu":"ᓚᓐᑕᓐ","name:ja":"ロンドン","name:ka":"ლონდონი","name:ko":"런던","name:lt":"Londonas","name:lv":"Landona","name:oj":"Baketigweyaang","name:ru":"Лондон","name:th":"ลอนดอน","name:ug":"لوندۇن","name:yi":"לאנדאן","name:chr":"ᎶᏂᏙᏂ","name:ckb":"لەندەن","name:crj":"ᓚᓐᑕᓐ","name:moh":"Tekahrhiónhwake","name:yue":"倫敦","name:zh-Hans":"伦敦"},"display_name":"London, Ontario, N6A 3N7, Canada","address":{"city":"London","state":"Ontario","ISO3166-2-lvl4":"CA-ON","postcode":"N6A 3N7","country":"Canada","country_code":"ca"},"population":422324,"osm_type":"node","osm_id":9406695086,"type":"city","location":[-81.243372,42.9832406],"bbox":[-81.403372,42.8232406,-81.083372,43.1432406]}
{"name":"Stratford","other_names":{"name:fr":"Stratford","name:ckb":"ستراتفۆرد"},"display_name":"Stratford, Ontario, Canada","address":{"city":"Stratford","state":"Ontario","ISO3166-2-lvl4":"CA-ON","country":"Canada","country_code":"ca"},"population":31465,"osm_type":"node","osm_id":479846228,"type":"city","location":[-80.9818016,43.3700899],"bbox":[-81.1418016,43.2100899,-80.8218016,43.5300899]}
{"name":"Woodstock","display_name":"Woodstock, Oxford County, Ontario, Canada","address":{"city":"Woodstock","county":"Oxford County","state":"Ontario","ISO3166-2-lvl4":"CA-ON","country":"Canada","country_code":"ca"},"population":40404,"osm_type":"node","osm_id":240997338,"type":"city","location":[-80.7562977,43.1301111],"bbox":[-80.9162977,42.9701111,-80.5962977,43.2901111]}
{"name":"Brantford","other_names":{"name:cay":"Tganadaháe:'","name:moh":"Tsi kanatáhere","name:ono":"Tganadahǽꞏʔ"},"display_name":"Brantford, Ontario, Canada","address":{"city":"Brantford","state":"Ontario","ISO3166-2-lvl4":"CA-ON","country":"Canada","country_code":"ca"},"population":97496,"osm_type":"node","osm_id":209200736,"type":"city","location":[-80.2631733,43.1408157],"bbox":[-80.4231733,42.9808157,-80.1031733,43.3008157]}
{"name":"Waterloo","other_names":{"name:ar":"واترلو","name:de":"Waterloo","name:fr":"Waterloo","name:nl":"Waterloo","name:ru":"Ватерлоо","name:zh":"滑铁卢"},"display_name":"Waterloo, Region of Waterloo, Ontario, Canada","address":{"city":"Waterloo","county":"Region of Waterloo","state":"Ontario","ISO3166-2-lvl4":"CA-ON","country":"Canada","country_code":"ca"},"population":104986,"osm_type":"node","osm_id":248829055,"type":"city","location":[-80.5222961,43.4652699],"bbox":[-80.6822961,43.3052699,-80.3622961,43.6252699]}
{"name":"Cambridge","other_names":{"name:en":"Cambridge","name:ru":"Кеймбридж"},"display_name":"Cambridge, Region of Waterloo, Ontario, Canada","address":{"city":"Cambridge","county":"Region of Waterloo","state":"Ontario","ISO3166-2-lvl4":"CA-ON","country":"Canada","country_code":"ca"},"population":129920,"osm_type":"node","osm_id":18998251,"type":"city","location":[-80.3123023,43.3600536],"bbox":[-80.4723023,43.2000536,-80.1523023,43.5200536]}
{"name":"Kitchener","other_names":{"name:de":"Kitchener","name:en":"Kitchener","name:fr":"Kitchener","name:ko":"키치너","name:ru":"Китченер","name:uk":"Кіченер","name:zh":"基秦拿"},"display_name":"Kitchener, Region of Waterloo, Ontario, Canada","address":{"city":"Kitchener","county":"Region of Waterloo","state":"Ontario","ISO3166-2-lvl4":"CA-ON","country":"Canada","country_code":"ca"},"population":233222,"osm_type":"node","osm_id":260034778,"type":"city","location":[-80.4927815,43.451291],"bbox":[-80.6527815,43.291291,-80.3327815,43.611291]}
{"name":"Guelph","other_names":{"name:ar":"جويلف","name:el":"Γκουέλφ","name:fa":"گوئلف","name:he":"גואלף","name:ja":"ゲルフ","name:ko":"궬프","name:ug":"گۇېلف","name:zh":"贵湖","name:moh":"Thatinatón:ni","official_name":"City of Guelph"},"display_name":"Guelph, Ontario, Canada","address":{"city":"Guelph","state":"Ontario","ISO3166-2-lvl4":"CA-ON","country":"Canada","country_code":"ca"},"population":131794,"osm_type":"node","osm_id":36576733,"type":"city","location":[-80.2493276,43.5460516],"bbox":[-80.4093276,43.3860516,-80.0893276,43.7060516]}
{"name":"Hamilton","other_names":{"name:ar":"هاميلتون","name:be":"Гамільтан","name:bg":"Хамилтън","name:bn":"হ্যামিল্টন","name:el":"Χάμιλτον","name:fa":"همیلتون","name:he":"המילטון","name:hi":"हैमिल्टन","name:ja":"ハミルトン","name:ko":"해밀턴","name:ku":"Hamilton","name:ru":"Гамильтон","name:uk":"Гамільтон","name:ur":"ہیملٹن","name:zh":"哈密尔顿","name:ckb":"هامیڵتۆن","name:moh":"Ohròn:wakon","name:ono":"Tgahehdáꞏdųʔ"},"display_name":"Hamilton, Golden Horseshoe, Ontario, Canada","address":{"city":"Hamilton","state_district":"Golden Horseshoe","state":"Ontario","ISO3166-2-lvl4":"CA-ON","country":"Canada","country_code":"ca"},"population":569353,"osm_type":"node","osm_id":18996031,"type":"city","location":[-79.8728583,43.2560802],"bbox":[-80.0328583,43.0960802,-79.7128583,43.4160802]}
{"name":"Burlington","other_names":{"name:ar":"بيرلينجتون","name:el":"Μπέρλινγκτον","name:fa":"برلینگتون","name:he":"ברלינגטון","name:ja":"バーリントン","name:ko":"벌링턴","name:ru":"Берлингтон","name:ur":"برلنگٹن","name:zh":"伯灵顿","name:ckb":"بورلینگتۆن","name:moh":"Tetio’neshóhon","name:ono":"Dyoʔnehsahę́ꞏhwaʔ","alt_name:ono":"Dyoʔnhehsahę́hwaʔ"},"display_name":"Burlington, Halton Region, Golden Horseshoe, Ontario, Canada","address":{"city":"Burlington","county":"Halton Region","state_district":"Golden Horseshoe","state":"Ontario","ISO3166-2-lvl4":"CA-ON","country":"Canada","country_code":"ca"},"population":160000,"osm_type":"node","osm_id":156782658,"type":"city","location":[-79.7966835,43.3248924],"bbox":[-79.9566835,43.1648924,-79.6366835,43.4848924]}
{"name":"Oakville","display_name":"Oakville, Halton Region, Golden Horseshoe, Ontario, Canada","address":{"city":"Oakville","county":"Halton Region","state_district":"Golden Horseshoe","state":"Ontario","ISO3166-2-lvl4":"CA-ON","country":"Canada","country_code":"ca"},"osm_type":"node","osm_id":558748122,"type":"city","location":[-79.666672,43.447436],"bbox":[-79.826672,43.287436,-79.506672,43.607436]}
{"name":"Mississauga","other_names":{"name:ckb":"میسیساگا","short_name":"Ont."},"display_name":"Mississauga, Peel Region, Golden Horseshoe, Ontario, Canada","address":{"city":"Mississauga","county":"Peel Region","state_district":"Golden Horseshoe","state":"Ontario","ISO3166-2-lvl4":"CA-ON","country":"Canada","country_code":"ca"},"population":721599,"osm_type":"node","osm_id":156801489,"type":"city","location":[-79.6443879,43.5896231],"bbox":[-79.8043879,43.4296231,-79.4843879,43.7496231]}
{"name":"Welland","display_name":"Welland, Niagara Region, Golden Horseshoe, Ontario, Canada","address":{"city":"Welland","county":"Niagara Region","state_district":"Golden Horseshoe","state":"Ontario","ISO3166-2-lvl4":"CA-ON","country":"Canada","country_code":"ca"},"population":52293,"osm_type":"node","osm_id":443044779,"type":"city","location":[-79.2484192,42.9922181],"bbox":[-79.4084192,42.8322181,-79.0884192,43.1522181]}
{"name":"Thorold","display_name":"Thorold, Niagara Region, Golden Horseshoe, Ontario, Canada","address":{"city":"Thorold","county":"Niagara Region","state_district":"Golden Horseshoe","state":"Ontario","ISO3166-2-lvl4":"CA-ON","country":"Canada","country_code":"ca"},"population":18801,"osm_type":"node","osm_id":2026722938,"type":"city","location":[-79.2005935,43.1249127],"bbox":[-79.3605935,42.9649127,-79.0405935,43.2849127]}
{"name":"St. Catharines","other_names":{"name:ar":"سانت كاثرينز","name:el":"Σαιντ Κάθαρινς","name:en":"St. Catharines","name:fa":"سنت کاترینز","name:fr":"Saint Catharines","name:he":"סנט קתרינס","name:ko":"세인트캐서린스","name:ru":"Сент-Катаринс","name:uk":"Сент-Кетерінс","name:ur":"سینٹ کیتھرائنز","name:zh":"圣凯瑟琳斯","name:moh":"Tetiotenonshà:kton","name:ono":"Dyodnųhsáʔkdųʔ"},"display_name":"St. Catharines, Niagara Region, Golden Horseshoe, Ontario, Canada","address":{"city":"St. Catharines","county":"Niagara Region","state_district":"Golden Horseshoe","state":"Ontario","ISO3166-2-lvl4":"CA-ON","country":"Canada","country_code":"ca"},"population":133113,"osm_type":"node","osm_id":26348017,"type":"city","location":[-79.2441003,43.1579812],"bbox":[-79.4041003,42.9979812,-79.0841003,43.3179812]}
{"name":"Niagara Falls","other_names":{"name:ar":"شلالات نياجارا","name:az":"Niaqara şəlaləsi","name:cs":"Niagarské Vodopády","name:en":"Niagara Falls","name:fa":"آبشار نیاگارا","name:he":"מפלי ניאגרה","name:ku":"Avşara Niagara","name:oj":"Wayaanag-gakaabikaawang","name:ru":"Ниагара-Фолс","name:sk":"Niagarské vodopády","name:uk":"Ніагара-Фоллс","name:azb":"نیاقارا شلاله‌لری","name:ckb":"تاڤگەکانی نیاگارا","name:moh":"name:moh=Tkaniá:taren’s"},"display_name":"Niagara Falls, Niagara Region, Golden Horseshoe, Ontario, Canada","address":{"city":"Niagara Falls","county":"Niagara Region","state_district":"Golden Horseshoe","state":"Ontario","ISO3166-2-lvl4":"CA-ON","country":"Canada","country_code":"ca"},"population":82184,"osm_type":"node","osm_id":26235714,"type":"city","location":[-79.0639039,43.1065603],"bbox":[-79.2239039,42.9465603,-78.9039039,43.2665603]}
{"name":"Owen Sound","other_names":{"name:oj":"Gchi-wiigwedong"},"display_name":"Owen Sound, Grey County, Ontario, Canada","address":{"city":"Owen Sound","county":"Grey County","state":"Ontario","ISO3166-2-lvl4":"CA-ON","country":"Canada","country_code":"ca"},"population":21688,"osm_type":"node","osm_id":68674508,"type":"city","location":[-80.9430094,44.5678105],"bbox":[-81.1030094,44.4078105,-80.7830094,44.7278105]}
{"name":"Brampton","display_name":"Brampton, Peel Region, Golden Horseshoe, Ontario, Canada","address":{"city":"Brampton","county":"Peel Region","state_district":"Golden Horseshoe","state":"Ontario","ISO3166-2-lvl4":"CA-ON","country":"Canada","country_code":"ca"},"population":593638,"osm_type":"node","osm_id":156801478,"type":"city","location":[-79.7599366,43.685832],"bbox":[-79.9199366,43.525832,-79.5999366,43.845832]}
{"name":"Vaughan","display_name":"Vaughan, York Region, Golden Horseshoe, Ontario, Canada","address":{"city":"Vaughan","county":"York Region","state_district":"Golden Horseshoe","state":"Ontario","ISO3166-2-lvl4":"CA-ON","country":"Canada","country_code":"ca"},"population":306233,"osm_type":"node","osm_id":319266313,"type":"city","location":[-79.5268023,43.7941544],"bbox":[-79.6868023,43.6341544,-79.3668023,43.9541544]}
{"name":"Newmarket","display_name":"Newmarket, York Region, Golden Horseshoe, Ontario, Canada","address":{"city":"Newmarket","county":"York Region","state_district":"Golden Horseshoe","state":"Ontario","ISO3166-2-lvl4":"CA-ON","country":"Canada","country_code":"ca"},"osm_type":"node","osm_id":1621148113,"type":"city","location":[-79.461708,44.056258],"bbox":[-79.621708,43.896258,-79.301708,44.216258]}
{"name":"Markham","display_name":"Markham, York Region, Golden Horseshoe, Ontario, Canada","address":{"city":"Markham","county":"York Region","state_district":"Golden Horseshoe","state":"Ontario","ISO3166-2-lvl4":"CA-ON","country":"Canada","country_code":"ca"},"population":328940,"osm_type":"node","osm_id":1702057542,"type":"city","location":[-79.3376825,43.8563707],"bbox":[-79.4976825,43.6963707,-79.1776825,44.0163707]}
{"name":"Toronto","other_names":{"name:ar":"تورونتو","name:ca":"Toronto","name:de":"Toronto","name:el":"Τορόντο","name:en":"Toronto","name:es":"Toronto","name:fa":"تورنتو","name:fr":"Toronto","name:gr":"Τορόντον","name:hy":"Տորոնտո","name:ku":"Toronto","name:oc":"Toronto","name:pa":"ਟੋਰਾਂਟੋ","name:pl":"Toronto","name:ps":"ټورنټو","name:pt":"Toronto","name:ug":"تورونتو","name:ur":"ٹورانٹو","name:azb":"تورونتو","name:ckb":"تۆرنتۆ","name:grc":"Τορόντον","name:hyw":"Թորոնթօ","name:kmr":"تۆرۆنتۆ","name:moh":"Aterón:to","name:ono":"Tgáędoʔ","name:pnb":"ٹورنٹو","alt_name:ono":"Tháęꞏdoʔ","name:az-Arab":"تورونتو","name:kk-Arab":"تورونتو","name:kab-Arab":"تورونتو"},"display_name":"Old Toronto, Toronto, Golden Horseshoe, Ontario, Canada","address":{"city":"Old Toronto","state_district":"Golden Horseshoe","state":"Ontario","ISO3166-2-lvl4":"CA-ON","country":"Canada","country_code":"ca"},"population":2731571,"osm_type":"node","osm_id":18063533,"type":"city","location":[-79.3839347,43.6534817],"bbox":[-79.5439347,43.4934817,-79.2239347,43.8134817]}
{"name":"Richmond Hill","display_name":"Richmond Hill, York Region, Golden Horseshoe, Ontario, Canada","address":{"city":"Richmond Hill","county":"York Region","state_district":"Golden Horseshoe","state":"Ontario","ISO3166-2-lvl4":"CA-ON","country":"Canada","country_code":"ca"},"osm_type":"node","osm_id":3792450377,"type":"city","location":[-79.4392925,43.8801166],"bbox":[-79.5992925,43.7201166,-79.2792925,44.0401166]}
{"name":"Pickering","other_names":{"name:fr":"Pickering"},"display_name":"Pickering, Durham Region, Golden Horseshoe, Ontario, Canada","address":{"city":"Pickering","county":"Durham Region","state_district":"Golden Horseshoe","state":"Ontario","ISO3166-2-lvl4":"CA-ON","country":"Canada","country_code":"ca"},"population":91771,"osm_type":"node","osm_id":558715688,"type":"city","location":[-79.090576,43.835765],"bbox":[-79.250576,43.675765,-78.930576,43.995765]}
{"name":"Ajax","display_name":"Ajax, Durham Region, Golden Horseshoe, Ontario, Canada","address":{"city":"Ajax","county":"Durham Region","state_district":"Golden Horseshoe","state":"Ontario","ISO3166-2-lvl4":"CA-ON","country":"Canada","country_code":"ca"},"osm_type":"node","osm_id":469888902,"type":"city","location":[-79.0208814,43.8505287],"bbox":[-79.1808814,43.6905287,-78.8608814,44.0105287]}
{"name":"Whitby","display_name":"Whitby, Durham Region, Golden Horseshoe, Ontario, Canada","address":{"city":"Whitby","county":"Durham Region","state_district":"Golden Horseshoe","state":"Ontario","ISO3166-2-lvl4":"CA-ON","country":"Canada","country_code":"ca"},"population":128377,"osm_type":"node","osm_id":905015352,"type":"city","location":[-78.9421751,43.87982],"bbox":[-79.1021751,43.71982,-78.7821751,44.03982]}
{"name":"Oshawa","display_name":"Oshawa, Durham Region, Golden Horseshoe, Ontario, Canada","address":{"city":"Oshawa","county":"Durham Region","state_district":"Golden Horseshoe","state":"Ontario","ISO3166-2-lvl4":"CA-ON","country":"Canada","country_code":"ca"},"population":159458,"osm_type":"node","osm_id":278031207,"type":"city","location":[-78.8635324,43.8975558],"bbox":[-79.0235324,43.7375558,-78.7035324,44.0575558]}
{"name":"Barrie","other_names":{"name:en":"Barrie","name:ru":"Барри","name:uk":"Беррі","official_name":"City of Barrie"},"display_name":"Barrie, Central Ontario, Ontario, Canada","address":{"city":"Barrie","state_district":"Central Ontario","state":"Ontario","ISO3166-2-lvl4":"CA-ON","country":"Canada","country_code":"ca"},"population":197059,"osm_type":"node","osm_id":6182594237,"type":"city","location":[-79.6901736,44.3893113],"bbox":[-79.8501736,44.2293113,-79.5301736,44.5493113]}
{"name":"Orillia","other_names":{"name:en":"Orillia","name:ru":"Ориллия","name:uk":"Оріллія"},"display_name":"Orillia, Central Ontario, Ontario, L3V 5A9, Canada","address":{"city":"Orillia","county":"Orillia","state_district":"Central Ontario","state":"Ontario","ISO3166-2-lvl4":"CA-ON","postcode":"L3V 5A9","country":"Canada","country_code":"ca"},"population":30546,"osm_type":"node","osm_id":61097209,"type":"city","location":[-79.4175587,44.6092059],"bbox":[-79.5775587,44.4492059,-79.2575587,44.7692059]}
{"name":"Quinte West","other_names":{"official_name":"City of Quinte West"},"display_name":"Quinte West, Central Ontario, Ontario, Canada","address":{"city":"Quinte West","state_district":"Central Ontario","state":"Ontario","ISO3166-2-lvl4":"CA-ON","country":"Canada","country_code":"ca"},"population":43577,"osm_type":"node","osm_id":6180141853,"type":"city","location":[-77.5748551,44.0988246],"bbox":[-77.7348551,43.9388246,-77.4148551,44.2588246]}
{"name":"Belleville","other_names":{"name:en":"Belleville","name:ru":"Бельвиль","name:uk":"Бельвіль","name:moh":"Tsi iohná:wate"},"display_name":"Belleville, Central Ontario, Ontario, K8N 2Z2, Canada","address":{"city":"Belleville","county":"Belleville","state_district":"Central Ontario","state":"Ontario","ISO3166-2-lvl4":"CA-ON","postcode":"K8N 2Z2","country":"Canada","country_code":"ca"},"osm_type":"node","osm_id":21542876,"type":"city","location":[-77.3852556,44.1633264],"bbox":[-77.5452556,44.0033264,-77.2252556,44.3233264]}
{"name":"Kawartha Lakes","other_names":{"official_name":"City of Kawartha Lakes"},"display_name":"Kawartha Lakes, Central Ontario, Ontario, Canada","address":{"city":"Kawartha Lakes","state_district":"Central Ontario","state":"Ontario","ISO3166-2-lvl4":"CA-ON","country":"Canada","country_code":"ca"},"population":75423,"osm_type":"node","osm_id":6180141852,"type":"city","location":[-78.7421729,44.3596825],"bbox":[-78.9021729,44.1996825,-78.5821729,44.5196825]}
{"name":"Peterborough","other_names":{"name:en":"Peterborough","name:ru":"Питерборо","name:uk":"Пітерборо"},"display_name":"Peterborough, Central Ontario, Ontario, Canada","address":{"city":"Peterborough","state_district":"Central Ontario","state":"Ontario","ISO3166-2-lvl4":"CA-ON","country":"Canada","country_code":"ca"},"osm_type":"node","osm_id":21596054,"type":"city","location":[-78.3199496,44.3048009],"bbox":[-78.4799496,44.1448009,-78.1599496,44.4648009]}
{"name":"Kingston","other_names":{"name:de":"Kingston","name:en":"Kingston","name:fr":"Kingston","name:he":"קנזינגטון","name:ru":"Кингстон","name:uk":"Кінгстон","name:moh":"Ken’tarókwen"},"display_name":"Kingston, Eastern Ontario, Ontario, K7L 2Z3, Canada","address":{"city":"Kingston","county":"Kingston","state_district":"Eastern Ontario","state":"Ontario","ISO3166-2-lvl4":"CA-ON","postcode":"K7L 2Z3","country":"Canada","country_code":"ca"},"population":123363,"osm_type":"node","osm_id":3128734246,"type":"city","location":[-76.481323,44.230687],"bbox":[-76.641323,44.070687,-76.321323,44.390687]}
{"name":"Brockville","other_names":{"name:en":"Brockville","name:ru":"Броквилл","name:uk":"Броквіль"},"display_name":"Brockville, Eastern Ontario, Ontario, K6V 3P9, Canada","address":{"city":"Brockville","county":"Brockville","state_district":"Eastern Ontario","state":"Ontario","ISO3166-2-lvl4":"CA-ON","postcode":"K6V 3P9","country":"Canada","country_code":"ca"},"population":21870,"osm_type":"node","osm_id":34600120,"type":"city","location":[-75.6843332,44.5895925],"bbox":[-75.8443332,44.4295925,-75.5243332,44.7495925]}
{"name":"Bedford","display_name":"Bedford, Halifax Regional Municipality, Halifax County, Nova Scotia, Canada","address":{"city":"Bedford","municipality":"Halifax Regional Municipality","county":"Halifax County","state":"Nova Scotia","ISO3166-2-lvl4":"CA-NS","country":"Canada","country_code":"ca"},"osm_type":"node","osm_id":32827187,"type":"city","location":[-63.6582365,44.7303901],"bbox":[-63.8182365,44.5703901,-63.4982365,44.8903901]}
{"name":"Halifax","other_names":{"name:ar":"هاليفاكس","name:en":"Halifax","name:lt":"Halifaksas","name:ru":"Галифакс","name:ckb":"هالیفاکس"},"display_name":"Halifax, Halifax Regional Municipality, Halifax County, Nova Scotia, Canada","address":{"city":"Halifax","municipality":"Halifax Regional Municipality","county":"Halifax County","state":"Nova Scotia","ISO3166-2-lvl4":"CA-NS","country":"Canada","country_code":"ca"},"population":403131,"osm_type":"node","osm_id":24922221,"type":"city","location":[-63.5859487,44.648618],"bbox":[-63.7459487,44.488618,-63.4259487,44.808618]}
{"name":"Dartmouth","display_name":"Dartmouth, Halifax Regional Municipality, Halifax County, Nova Scotia, Canada","address":{"city":"Dartmouth","municipality":"Halifax Regional Municipality","county":"Halifax County","state":"Nova Scotia","ISO3166-2-lvl4":"CA-NS","country":"Canada","country_code":"ca"},"population":70000,"osm_type":"node","osm_id":5907455785,"type":"city","location":[-63.5720232,44.6799707],"bbox":[-63.7320232,44.5199707,-63.4120232,44.8399707]}
{"name":"Thunder Bay","other_names":{"name:en":"Thunder Bay","name:ru":"Тандер-Бей","name:uk":"Тандер-Бей"},"display_name":"Thunder Bay, Thunder Bay District, Northwestern Ontario, Ontario, Canada","address":{"city":"Thunder Bay","county":"Thunder Bay District","state_district":"Northwestern Ontario","state":"Ontario","ISO3166-2-lvl4":"CA-ON","country":"Canada","country_code":"ca"},"population":108359,"osm_type":"node","osm_id":19188467,"type":"city","location":[-89.259796,48.406414],"bbox":[-89.419796,48.246414,-89.099796,48.566414]}
{"name":"Elliot Lake","display_name":"Elliot Lake, Algoma District, Northeastern Ontario, Ontario, Canada","address":{"city":"Elliot Lake","county":"Algoma District","state_district":"Northeastern Ontario","state":"Ontario","ISO3166-2-lvl4":"CA-ON","country":"Canada","country_code":"ca"},"population":11348,"osm_type":"node","osm_id":2658461559,"type":"city","location":[-82.652893,46.373464],"bbox":[-82.812893,46.213464,-82.492893,46.533464]}
{"name":"Sault Ste. Marie","other_names":{"name:de":"Sault Ste. Marie","name:fr":"Sault-Sainte-Marie","name:uk":"Су-Сен-Марі"},"display_name":"Sault Ste. Marie, Algoma District, Northeastern Ontario, Ontario, Canada","address":{"city":"Sault Ste. Marie","county":"Algoma District","state_district":"Northeastern Ontario","state":"Ontario","ISO3166-2-lvl4":"CA-ON","country":"Canada","country_code":"ca"},"population":75141,"osm_type":"node","osm_id":2698992940,"type":"city","location":[-84.320068,46.52391],"bbox":[-84.480068,46.36391,-84.160068,46.68391]}
{"name":"North Bay","other_names":{"name:ckb":"نۆرس بەی"},"display_name":"North Bay, Nipissing District, Northeastern Ontario, Ontario, Canada","address":{"city":"North Bay","county":"Nipissing District","state_district":"Northeastern Ontario","state":"Ontario","ISO3166-2-lvl4":"CA-ON","country":"Canada","country_code":"ca"},"population":51553,"osm_type":"node","osm_id":4771916237,"type":"city","location":[-79.4607617,46.3092115],"bbox":[-79.6207617,46.1492115,-79.3007617,46.4692115]}
{"name":"Sudbury","other_names":{"name:ru":"Большой Садбери","name:uk":"Садбері","name:ckb":"سەدبێری","official_name":"Greater Sudbury"},"display_name":"Greater Sudbury, Sudbury District, Northeastern Ontario, Ontario, Canada","address":{"city":"Greater Sudbury","county":"Sudbury District","state_district":"Northeastern Ontario","state":"Ontario","ISO3166-2-lvl4":"CA-ON","country":"Canada","country_code":"ca"},"population":161531,"osm_type":"node","osm_id":1785895622,"type":"city","location":[-80.991211,46.49272],"bbox":[-81.151211,46.33272,-80.831211,46.65272]}
{"name":"Temiskaming Shores","display_name":"Temiskaming Shores, Timiskaming District, Northeastern Ontario, Ontario, Canada","address":{"city":"Temiskaming Shores","county":"Timiskaming District","state_district":"Northeastern Ontario","state":"Ontario","ISO3166-2-lvl4":"CA-ON","country":"Canada","country_code":"ca"},"population":10400,"osm_type":"node","osm_id":2028337920,"type":"city","location":[-79.675598,47.512563],"bbox":[-79.835598,47.352563,-79.515598,47.672563]}
{"name":"Timmins","other_names":{"name:en":"Timmins","name:ru":"Тимминс","name:uk":"Тіммінс"},"display_name":"Timmins, Cochrane District, Northeastern Ontario, Ontario, Canada","address":{"city":"Timmins","county":"Cochrane District","state_district":"Northeastern Ontario","state":"Ontario","ISO3166-2-lvl4":"CA-ON","country":"Canada","country_code":"ca"},"population":41788,"osm_type":"node","osm_id":927572560,"type":"city","location":[-81.330414,48.477473],"bbox":[-81.490414,48.317473,-81.170414,48.637473]}
{"name":"Rouyn-Noranda","other_names":{"name:en":"Rouyn-Noranda","name:ru":"Руэн-Норанда","name:uk":"Руен-Норанда"},"display_name":"Rouyn-Noranda, Abitibi-Témiscamingue, Québec, Canada","address":{"city":"Rouyn-Noranda","region":"Abitibi-Témiscamingue","state":"Québec","ISO3166-2-lvl4":"CA-QC","country":"Canada","country_code":"ca"},"population":42334,"osm_type":"node","osm_id":236358552,"type":"city","location":[-79.0205378,48.2420524],"bbox":[-79.1805378,48.0820524,-78.8605378,48.4020524]}
{"name":"Pembroke","display_name":"Pembroke, Eastern Ontario, Ontario, K8A 4K2, Canada","address":{"city":"Pembroke","county":"Pembroke","state_district":"Eastern Ontario","state":"Ontario","ISO3166-2-lvl4":"CA-ON","postcode":"K8A 4K2","country":"Canada","country_code":"ca"},"population":16146,"osm_type":"node","osm_id":91705556,"type":"city","location":[-77.113541,45.8260909],"bbox":[-77.273541,45.6660909,-76.953541,45.9860909]}
{"name":"Gatineau","other_names":{"name:zh-Hans":"加蒂诺","name:zh-Hant":"加蒂諾","official_name":"Ville de Gatineau"},"display_name":"Gatineau, Outaouais, Québec, Canada","address":{"city":"Gatineau","region":"Outaouais","state":"Québec","ISO3166-2-lvl4":"CA-QC","country":"Canada","country_code":"ca"},"population":276245,"osm_type":"node","osm_id":618832970,"type":"city","location":[-75.710976,45.4277659],"bbox":[-75.870976,45.2677659,-75.550976,45.5877659]}
{"name":"Ottawa","other_names":{"name:am":"ኦታዋ","name:ar":"أوتاوا","name:av":"Оттава","name:az":"Ottava","name:be":"Атава","name:bg":"Отава","name:bn":"অটোয়া","name:bo":"ཨོ་ཏ་ཝ།","name:br":"Ottawa","name:cv":"Оттава","name:de":"Ottawa","name:el":"Οττάβα","name:en":"Ottawa","name:eo":"Otavo","name:es":"Ottawa","name:eu":"Ottawa","name:fa":"اتاوا","name:fr":"Ottawa","name:gl":"Otava - Ottawa","name:he":"אוטווה","name:ht":"Otawa","name:hu":"Ottawa","name:hy":"Օտտավա","name:is":"Ottawa","name:iu":"ᐊᑐᕚ","name:ja":"オタワ","name:ka":"ოტავა","name:kk":"Оттава","name:kn":"ಆಟ್ಟಾವಾ","name:ko":"오타와","name:ku":"Ottawa","name:la":"Ottava","name:lt":"Otava","name:lv":"Otava","name:mk":"Отава","name:ml":"ഓട്ടവ","name:mn":"Оттава","name:mr":"ओटावा","name:oc":"Ottawa","name:os":"Оттавæ","name:pa":"ਓਟਾਵਾ","name:pl":"Ottawa","name:ru":"Оттава","name:sr":"Отава","name:sv":"Ottawa","name:ta":"ஒட்டாவா","name:th":"ออตตาวา","name:uk":"Оттава","name:ur":"اوٹاوا","name:uz":"Ottava","name:yi":"אטאווא","name:zh":"渥太華","name:chr":"ᎠᏔᏩ, ᎨᎾᏓ","name:ckb":"ئۆتاوا","name:moe":"Utaua","name:moh":"Kanà:tso","name:mzn":"اوتآوآ","name:nah":"Ottahua","name:pnb":"اٹاوہ","name:sah":"Оттава","name:yue":"渥太華","name:iu-Latn":"Atavaa","name:zh-Hans":"渥太华","name:zh-Hant":"渥太華","name:be-tarask":"Атава"},"display_name":"Ottawa, Eastern Ontario, Ontario, Canada","address":{"city":"Ottawa","state_district":"Eastern Ontario","state":"Ontario","ISO3166-2-lvl4":"CA-ON","country":"Canada","country_code":"ca"},"population":934243,"osm_type":"node","osm_id":18886011,"type":"city","location":[-75.6901106,45.4208777],"bbox":[-75.8501106,45.2608777,-75.5301106,45.5808777]}
{"name":"Cornwall","other_names":{"name:en":"Cornwall","name:uk":"Корнвол","name:moh":"Tsi kaná:taien"},"display_name":"Cornwall, Eastern Ontario, Ontario, K6J 3P4, Canada","address":{"city":"Cornwall","county":"Cornwall","state_district":"Eastern Ontario","state":"Ontario","ISO3166-2-lvl4":"CA-ON","postcode":"K6J 3P4","country":"Canada","country_code":"ca"},"population":46867,"osm_type":"node","osm_id":286894978,"type":"city","location":[-74.728703,45.0184417],"bbox":[-74.888703,44.8584417,-74.568703,45.1784417]}
{"name":"Mirabel","display_name":"Mirabel, Laurentides, Québec, Canada","address":{"city":"Mirabel","region":"Laurentides","state":"Québec","ISO3166-2-lvl4":"CA-QC","country":"Canada","country_code":"ca"},"osm_type":"node","osm_id":6605516569,"type":"city","location":[-74.0731738,45.6452452],"bbox":[-74.2331738,45.4852452,-73.9131738,45.8052452]}
{"name":"Saint-Jean-sur-Richelieu","display_name":"Saint-Jean-sur-Richelieu, Le Haut-Richelieu, Montérégie, Québec, Canada","address":{"city":"Saint-Jean-sur-Richelieu","county":"Le Haut-Richelieu","region":"Montérégie","state":"Québec","ISO3166-2-lvl4":"CA-QC","country":"Canada","country_code":"ca"},"population":95114,"osm_type":"node","osm_id":208987558,"type":"city","location":[-73.2533401,45.3056879],"bbox":[-73.4133401,45.1456879,-73.0933401,45.4656879]}
{"name":"Montréal","other_names":{"name:ar":"مونتريال","name:be":"Манрэаль","name:bg":"Монреал","name:ca":"Mont-real","name:de":"Montreal","name:el":"Μόντρεαλ","name:en":"Montreal","name:eo":"Montrealo","name:es":"Montreal","name:fa":"مونترآل","name:fr":"Montréal","name:gr":"Μοντρεάλη","name:he":"מונטריאול","name:hy":"Մոնրեալ","name:iu":"ᒧᕆᐊᓪ","name:ja":"モントリオール","name:kn":"ಹ್ಯುಸ್ಟಣ್","name:ks":"مانٹریال","name:nl":"Montreal","name:oc":"Montreal","name:oj":"Mooniyaang","name:pa":"ਮਾਂਟਰੀਆਲ","name:pl":"Montreal","name:ps":"مونټريال","name:pt":"Montreal","name:ru":"Монреаль","name:sh":"Montreal","name:sr":"Монтреал","name:ug":"مونترېئال","name:uk":"Монреаль","name:ur":"مانٹریال","name:yi":"מאנטרעאל","name:zh":"蒙特利尔","name:azb":"مونترئال","name:ckb":"مۆنتریال","name:grc":"Μοντρεάλη","name:hyw":"Մոնրէալ","name:kab":"Montreal","name:mic":"Mulian","name:moh":"Tiohtià:ke","name:mzn":"مونترئال","name:ojg":"Moon'yang","name:pnb":"مونٹریال","name:zh-Hans":"蒙特利尔","name:zh-Hant":"蒙特利爾","name:be-tarask":"Манрэаль","official_name:moh":"Tiohtià:ke tsi ionhwéntsare."},"display_name":"Montréal, Agglomération de Montréal, Montréal (région administrative), Québec, Canada","address":{"city":"Montréal","county":"Agglomération de Montréal","region":"Montréal (région administrative)","state":"Québec","ISO3166-2-lvl4":"CA-QC","country":"Canada","country_code":"ca"},"population":1762949,"osm_type":"node","osm_id":299790200,"type":"city","location":[-73.5698065,45.5031824],"bbox":[-73.7298065,45.3431824,-73.4098065,45.6631824]}
{"name":"Laval","display_name":"Laval (région administrative), Québec, Canada","address":{"city":"Laval (région administrative)","state":"Québec","ISO3166-2-lvl4":"CA-QC","country":"Canada","country_code":"ca"},"population":422993,"osm_type":"node","osm_id":979092789,"type":"city","location":[-73.7530656,45.5757802],"bbox":[-73.9130656,45.4157802,-73.5930656,45.7357802]}
{"name":"Longueuil","other_names":{"name:ar":"لونغوي","name:el":"Λονγκέιγ","name:fa":"لونگوی","name:he":"לונגוי","name:ko":"롱괴유","name:ru":"Лонгёй","name:uk":"Лонгуей","name:zh":"朗基尔","name:moh":"Karonhiatsi’kowáhne"},"display_name":"Longueuil, Agglomération de Longueuil, Montérégie, Québec, Canada","address":{"city":"Longueuil","county":"Agglomération de Longueuil","region":"Montérégie","state":"Québec","ISO3166-2-lvl4":"CA-QC","country":"Canada","country_code":"ca"},"population":252000,"osm_type":"node","osm_id":252025539,"type":"city","location":[-73.4644578,45.521906],"bbox":[-73.6244578,45.361906,-73.3044578,45.681906]}
{"name":"Saint-Jérôme","other_names":{"name:en":"Saint-Jérôme","name:fr":"Saint-Jérôme","name:ru":"Сен-Жером","name:uk":"Сен-Жером"},"display_name":"Saint-Jérôme, La Rivière-du-Nord, Laurentides, Québec, Canada","address":{"city":"Saint-Jérôme","county":"La Rivière-du-Nord","region":"Laurentides","state":"Québec","ISO3166-2-lvl4":"CA-QC","country":"Canada","country_code":"ca"},"population":68456,"osm_type":"node","osm_id":252344877,"type":"city","location":[-74.013176,45.775426],"bbox":[-74.173176,45.615426,-73.853176,45.935426]}
{"name":"Joliette","other_names":{"name:ru":"Жольет"},"display_name":"Joliette, Joliette (MRC), Lanaudière, Québec, Canada","address":{"city":"Joliette","county":"Joliette (MRC)","region":"Lanaudière","state":"Québec","ISO3166-2-lvl4":"CA-QC","country":"Canada","country_code":"ca"},"population":20484,"osm_type":"node","osm_id":110499084,"type":"city","location":[-73.4419936,46.0239798],"bbox":[-73.6019936,45.8639798,-73.2819936,46.1839798]}
{"name":"Val-d'Or","display_name":"Val-d'Or, La Vallée-de-l'Or, Abitibi-Témiscamingue, Québec, Canada","address":{"city":"Val-d'Or","county":"La Vallée-de-l'Or","region":"Abitibi-Témiscamingue","state":"Québec","ISO3166-2-lvl4":"CA-QC","country":"Canada","country_code":"ca"},"population":35000,"osm_type":"node","osm_id":5965184136,"type":"city","location":[-77.7875715,48.1023356],"bbox":[-77.9475715,47.9423356,-77.6275715,48.2623356]}
{"name":"Saint-Hyacinthe","display_name":"Saint-Hyacinthe, Les Maskoutains, Montérégie, Québec, Canada","address":{"city":"Saint-Hyacinthe","county":"Les Maskoutains","region":"Montérégie","state":"Québec","ISO3166-2-lvl4":"CA-QC","country":"Canada","country_code":"ca"},"population":53200,"osm_type":"node","osm_id":90436171,"type":"city","location":[-72.940636,45.627484],"bbox":[-73.100636,45.467484,-72.780636,45.787484]}
{"name":"Granby","display_name":"Granby, La Haute-Yamaska, Estrie, Québec, Canada","address":{"city":"Granby","county":"La Haute-Yamaska","region":"Estrie","state":"Québec","ISO3166-2-lvl4":"CA-QC","country":"Canada","country_code":"ca"},"population":66222,"osm_type":"node","osm_id":90485996,"type":"city","location":[-72.721834,45.3990409],"bbox":[-72.881834,45.2390409,-72.561834,45.5590409]}
{"name":"Sherbrooke","other_names":{"name:ar":"شيربروك","name:en":"Sherbrooke","name:fa":"شربروک","name:ko":"셰르브루크","name:ru":"Шербрук","name:uk":"Шербрук","name:zh":"舍布魯克","name:abe":"Kchi Nikitawtegwak"},"display_name":"Sherbrooke, Estrie, Québec, Canada","address":{"city":"Sherbrooke","region":"Estrie","state":"Québec","ISO3166-2-lvl4":"CA-QC","country":"Canada","country_code":"ca"},"population":161323,"osm_type":"node","osm_id":84941554,"type":"city","location":[-71.889038,45.403271],"bbox":[-72.049038,45.243271,-71.729038,45.563271]}
{"name":"Sorel-Tracy","display_name":"Sorel-Tracy, Pierre-De Saurel, Montérégie, Québec, J3P 4M4, Canada","address":{"city":"Sorel-Tracy","county":"Pierre-De Saurel","region":"Montérégie","state":"Québec","ISO3166-2-lvl4":"CA-QC","postcode":"J3P 4M4","country":"Canada","country_code":"ca"},"osm_type":"node","osm_id":1137483976,"type":"city","location":[-73.1165159,46.0435235],"bbox":[-73.2765159,45.8835235,-72.9565159,46.2035235]}
{"name":"Drummondville","other_names":{"name:en":"Drummondville","name:ru":"Дрюммонвилль","name:uk":"Драммонвіль"},"display_name":"Drummondville, Drummond, Centre-du-Québec, Québec, Canada","address":{"city":"Drummondville","county":"Drummond","region":"Centre-du-Québec","state":"Québec","ISO3166-2-lvl4":"CA-QC","country":"Canada","country_code":"ca"},"population":71850,"osm_type":"node","osm_id":4552747380,"type":"city","location":[-72.5018764,45.8864303],"bbox":[-72.6618764,45.7264303,-72.3418764,46.0464303]}
{"name":"Trois-Rivières","other_names":{"name:en":"Trois-Rivières","name:ru":"Труа-Ривьер","name:uk":"Труа-Рів'єр"},"display_name":"Trois-Rivières, Mauricie, Québec, Canada","address":{"city":"Trois-Rivières","region":"Mauricie","state":"Québec","ISO3166-2-lvl4":"CA-QC","country":"Canada","country_code":"ca"},"population":134413,"osm_type":"node","osm_id":207179911,"type":"city","location":[-72.5428485,46.3432325],"bbox":[-72.7028485,46.1832325,-72.3828485,46.5032325]}
{"name":"Cookshire-Eaton","display_name":"Cookshire-Eaton, Le Haut-Saint-François, Estrie, Québec, Canada","address":{"city":"Cookshire-Eaton","county":"Le Haut-Saint-François","region":"Estrie","state":"Québec","ISO3166-2-lvl4":"CA-QC","country":"Canada","country_code":"ca"},"osm_type":"node","osm_id":10742470936,"type":"city","location":[-71.6290758,45.4125001],"bbox":[-71.7890758,45.2525001,-71.4690758,45.5725001]}
{"name":"Saint-Georges","other_names":{"name:fr":"Saint-Georges","name:ko":"셍죠흐쥬","old_name":"Saint-Georges-de-Beauce"},"display_name":"Saint-Georges, Beauce-Sartigan, Chaudière-Appalaches, Québec, Canada","address":{"city":"Saint-Georges","county":"Beauce-Sartigan","region":"Chaudière-Appalaches","state":"Québec","ISO3166-2-lvl4":"CA-QC","country":"Canada","country_code":"ca"},"population":31170,"osm_type":"node","osm_id":4055970939,"type":"city","location":[-70.671959,46.122987],"bbox":[-70.831959,45.962987,-70.511959,46.282987]}
{"name":"Shawinigan","other_names":{"name:en":"Shawinigan","name:fr":"Shawinigan","name:ru":"Шавиниган","name:abe":"Azawanigan","name:atj":"Cawinikan"},"display_name":"Shawinigan, Mauricie, Québec, Canada","address":{"city":"Shawinigan","region":"Mauricie","state":"Québec","ISO3166-2-lvl4":"CA-QC","country":"Canada","country_code":"ca"},"population":49620,"osm_type":"node","osm_id":274107537,"type":"city","location":[-72.7518637,46.5396581],"bbox":[-72.9118637,46.3796581,-72.5918637,46.6996581]}
{"name":"Québec","other_names":{"name:ar":"كيبك","name:be":"Квебек","name:bg":"Квебек","name:ca":"Quebec","name:de":"Quebec","name:el":"Κεμπέκ","name:en":"Quebec","name:es":"Quebec","name:fr":"Québec","name:fy":"Kebek","name:gr":"Κεβέκ","name:ko":"퀘벡","name:ks":"کیوبک","name:nl":"Quebec","name:ru":"Квебек","name:sr":"Квебек","name:uk":"Квебек","name:ur":"کیوبک","name:zh":"魁北克","alt_name":"Ville de Québec","name:abe":"Kebek","name:arc":"ܩܝܒܩ","name:azb":"کبک","name:grc":"Κεβέκ","name:moh":"Tekiatenontarí:kon","name:syc":"ܩܝܒܩ","name:tzl":"Quebec","alt_name:en":"Quebec City","name:be-tarask":"Квэбэк"},"display_name":"Québec, Agglomération de Québec, Capitale-Nationale, Québec, Canada","address":{"city":"Québec","county":"Agglomération de Québec","region":"Capitale-Nationale","state":"Québec","ISO3166-2-lvl4":"CA-QC","country":"Canada","country_code":"ca"},"population":530168,"osm_type":"node","osm_id":30915641,"type":"city","location":[-71.2084061,46.8137431],"bbox":[-71.3684061,46.6537431,-71.0484061,46.9737431]}
{"name":"Lévis","other_names":{"name:en":"Lévis","name:fr":"Lévis","name:ko":"레비스"},"display_name":"Lévis, Chaudière-Appalaches, Québec, Canada","address":{"city":"Lévis","region":"Chaudière-Appalaches","state":"Québec","ISO3166-2-lvl4":"CA-QC","country":"Canada","country_code":"ca"},"population":143414,"osm_type":"node","osm_id":245517446,"type":"city","location":[-71.1778792,46.8033114],"bbox":[-71.3378792,46.6433114,-71.0178792,46.9633114]}
{"name":"Edmundston","other_names":{"name:en":"Edmundston","name:ru":"Эдмундстон","name:uk":"Едмундстон"},"display_name":"Edmundston, Madawaska County, New Brunswick / Nouveau-Brunswick, E3V 1J9, Canada","address":{"city":"Edmundston","county":"Edmundston","state":"New Brunswick / Nouveau-Brunswick","ISO3166-2-lvl4":"CA-NB","postcode":"E3V 1J9","country":"Canada","country_code":"ca"},"osm_type":"node","osm_id":34699332,"type":"city","location":[-68.328094,47.364409],"bbox":[-68.488094,47.204409,-68.168094,47.524409]}
{"name":"Saguenay","display_name":"Saguenay, Saguenay–Lac-Saint-Jean, Québec, Canada","address":{"city":"Saguenay","region":"Saguenay–Lac-Saint-Jean","state":"Québec","ISO3166-2-lvl4":"CA-QC","country":"Canada","country_code":"ca"},"osm_type":"node","osm_id":276289844,"type":"city","location":[-71.069183,48.405959],"bbox":[-71.229183,48.245959,-70.909183,48.565959]}
{"name":"Alma","display_name":"Alma, Lac-Saint-Jean-Est, Saguenay–Lac-Saint-Jean, Québec, Canada","address":{"city":"Alma","county":"Lac-Saint-Jean-Est","region":"Saguenay–Lac-Saint-Jean","state":"Québec","ISO3166-2-lvl4":"CA-QC","country":"Canada","country_code":"ca"},"osm_type":"node","osm_id":245088097,"type":"city","location":[-71.651459,48.548887],"bbox":[-71.811459,48.388887,-71.491459,48.708887]}
{"name":"Rivière-du-Loup","display_name":"Rivière-du-Loup, Rivière-du-Loup (MRC), Bas-Saint-Laurent, Québec, Canada","address":{"city":"Rivière-du-Loup","county":"Rivière-du-Loup (MRC)","region":"Bas-Saint-Laurent","state":"Québec","ISO3166-2-lvl4":"CA-QC","country":"Canada","country_code":"ca"},"osm_type":"node","osm_id":259235900,"type":"city","location":[-69.5368025,47.8358164],"bbox":[-69.6968025,47.6758164,-69.3768025,47.9958164]}
{"name":"Rimouski","other_names":{"name:en":"Rimouski","name:ru":"Римуски","name:uk":"Рімускі"},"display_name":"Rimouski, Rimouski-Neigette, Bas-Saint-Laurent, Québec, Canada","address":{"city":"Rimouski","county":"Rimouski-Neigette","region":"Bas-Saint-Laurent","state":"Québec","ISO3166-2-lvl4":"CA-QC","country":"Canada","country_code":"ca"},"population":46860,"osm_type":"node","osm_id":260286524,"type":"city","location":[-68.529968,48.450155],"bbox":[-68.689968,48.290155,-68.369968,48.610155]}
{"name":"Matane","display_name":"Matane, La Matanie, Bas-Saint-Laurent, Québec, Canada","address":{"city":"Matane","county":"La Matanie","region":"Bas-Saint-Laurent","state":"Québec","ISO3166-2-lvl4":"CA-QC","country":"Canada","country_code":"ca"},"population":14812,"osm_type":"node","osm_id":373226072,"type":"city","location":[-67.5295498,48.8468773],"bbox":[-67.6895498,48.6868773,-67.3695498,49.0068773]}
{"name":"Baie-Comeau","other_names":{"name:ru":"Бе-Комо"},"display_name":"Baie-Comeau, Manicouagan, Côte-Nord, Québec, Canada","address":{"city":"Baie-Comeau","county":"Manicouagan","region":"Côte-Nord","state":"Québec","ISO3166-2-lvl4":"CA-QC","country":"Canada","country_code":"ca"},"population":22113,"osm_type":"node","osm_id":107364301,"type":"city","location":[-68.1801406,49.2118373],"bbox":[-68.3401406,49.0518373,-68.0201406,49.3718373]}
{"name":"Fredericton","other_names":{"name:ar":"فريدريكتون","name:de":"Fredericton","name:el":"Φρέντρικτον","name:en":"Fredericton","name:fa":"فردریکتون","name:fr":"Fredericton","name:pl":"Fredericton","name:ru":"Фредериктон","name:uk":"Фредеріктон","name:ur":"فریڈریکٹن","name:azb":"فردریکتون","name:ckb":"فرێدریکتۆن","name:pnb":"فریڈرکٹن","name:az-Arab":"فردریکتون"},"display_name":"Fredericton, York County / Comté d'York, New Brunswick / Nouveau-Brunswick, Canada","address":{"city":"Fredericton","county":"York County / Comté d'York","state":"New Brunswick / Nouveau-Brunswick","ISO3166-2-lvl4":"CA-NB","country":"Canada","country_code":"ca"},"population":58220,"osm_type":"node","osm_id":204462923,"type":"city","location":[-66.6432356,45.963233],"bbox":[-66.8032356,45.803233,-66.4832356,46.123233]}
{"name":"Saint John","display_name":"City of Saint John, Saint John County, New Brunswick / Nouveau-Brunswick, Canada","address":{"city":"City of Saint John","county":"Saint John County","state":"New Brunswick / Nouveau-Brunswick","ISO3166-2-lvl4":"CA-NB","country":"Canada","country_code":"ca"},"osm_type":"node","osm_id":129999186,"type":"city","location":[-66.058044,45.278752],"bbox":[-66.218044,45.118752,-65.898044,45.438752]}
{"name":"Moncton","other_names":{"name:en":"Moncton","name:ru":"Монктон","name:uk":"Монктон"},"display_name":"Moncton, Westmorland County, New Brunswick / Nouveau-Brunswick, Canada","address":{"city":"Moncton","county":"Westmorland County","state":"New Brunswick / Nouveau-Brunswick","ISO3166-2-lvl4":"CA-NB","country":"Canada","country_code":"ca"},"osm_type":"node","osm_id":204466183,"type":"city","location":[-64.80011,46.097995],"bbox":[-64.96011,45.937995,-64.64011,46.257995]}
{"name":"Dieppe","display_name":"Dieppe, Westmorland County, New Brunswick / Nouveau-Brunswick, Canada","address":{"city":"Dieppe","county":"Westmorland County","state":"New Brunswick / Nouveau-Brunswick","ISO3166-2-lvl4":"CA-NB","country":"Canada","country_code":"ca"},"osm_type":"node","osm_id":1756239979,"type":"city","location":[-64.7354772,46.0945258],"bbox":[-64.8954772,45.9345258,-64.5754772,46.2545258]}
{"name":"Miramichi","display_name":"Miramichi, City of Miramichi, Northumberland County, New Brunswick / Nouveau-Brunswick, Canada","address":{"city":"Miramichi","county":"City of Miramichi","state":"New Brunswick / Nouveau-Brunswick","ISO3166-2-lvl4":"CA-NB","country":"Canada","country_code":"ca"},"osm_type":"node","osm_id":204466916,"type":"city","location":[-65.494995,47.032695],"bbox":[-65.654995,46.872695,-65.334995,47.192695]}
{"name":"Bathurst","other_names":{"name:en":"Bathurst","name:ru":"Батерст","name:uk":"Батерст"},"display_name":"City of Bathurst, Bathurst Parish, Gloucester County, New Brunswick / Nouveau-Brunswick, Canada","address":{"city":"City of Bathurst","county":"Bathurst Parish","state":"New Brunswick / Nouveau-Brunswick","ISO3166-2-lvl4":"CA-NB","country":"Canada","country_code":"ca"},"osm_type":"node","osm_id":204480457,"type":"city","location":[-65.654297,47.626529],"bbox":[-65.814297,47.466529,-65.494297,47.786529]}
{"name":"Summerside","display_name":"Summerside, City of Summerside, Prince County, Prince Edward Island, Canada","address":{"city":"Summerside","county":"City of Summerside","state":"Prince Edward Island","ISO3166-2-lvl4":"CA-PE","country":"Canada","country_code":"ca"},"osm_type":"node","osm_id":410372338,"type":"city","location":[-63.789368,46.394306],"bbox":[-63.949368,46.234306,-63.629368,46.554306]}
{"name":"Charlottetown","other_names":{"name:ar":"شارلوت تاون","name:en":"Charlottetown","name:lt":"Šarlotetaunas","name:ru":"Шарлоттаун","name:uk":"Шарлоттаун","name:zh":"夏洛特顿","name:sco":"Baile Sheàrlot"},"display_name":"Charlottetown, City of Charlottetown, Queens County, Prince Edward Island, Canada","address":{"city":"Charlottetown","county":"Queens County","state":"Prince Edward Island","ISO3166-2-lvl4":"CA-PE","country":"Canada","country_code":"ca"},"population":36094,"osm_type":"node","osm_id":315422127,"type":"city","location":[-63.132935,46.234953],"bbox":[-63.292935,46.074953,-62.972935,46.394953]}
{"name":"Campbellton","display_name":"Campbellton, Addington Parish, Restigouche County, New Brunswick / Nouveau-Brunswick, Canada","address":{"city":"Campbellton","county":"Addington Parish","state":"New Brunswick / Nouveau-Brunswick","ISO3166-2-lvl4":"CA-NB","country":"Canada","country_code":"ca"},"osm_type":"node","osm_id":1308285493,"type":"city","location":[-66.6768648,48.0046993],"bbox":[-66.8368648,47.8446993,-66.5168648,48.1646993]}
{"name":"Sept-Îles","other_names":{"name:en":"Sept-Îles","name:ru":"Сет-Иль","name:uk":"Сет-Іль"},"display_name":"Sept-Îles, Sept-Rivières, Côte-Nord, Québec, Canada","address":{"city":"Sept-Îles","county":"Sept-Rivières","region":"Côte-Nord","state":"Québec","ISO3166-2-lvl4":"CA-QC","country":"Canada","country_code":"ca"},"population":25686,"osm_type":"node","osm_id":107363797,"type":"city","location":[-66.3790642,50.2109579],"bbox":[-66.5390642,50.0509579,-66.2190642,50.3709579]}
{"name":"Sydney","other_names":{"name:en":"Sydney","name:ru":"Сидней","name:uk":"Сідней"},"display_name":"Sydney, Cape Breton Regional Municipality, Cape Breton County, Nova Scotia, Canada","address":{"city":"Sydney","county":"Cape Breton Regional Municipality","state":"Nova Scotia","ISO3166-2-lvl4":"CA-NS","country":"Canada","country_code":"ca"},"osm_type":"node","osm_id":410361983,"type":"city","location":[-60.194092,46.137977],"bbox":[-60.354092,45.977977,-60.034092,46.297977]}
{"name":"Corner Brook","other_names":{"name:en":"Corner Brook","name:ru":"Корнер-Брук","name:uk":"Корнер-Брук"},"display_name":"Corner Brook, Newfoundland, Newfoundland and Labrador, Canada","address":{"city":"Corner Brook","state_district":"Newfoundland","state":"Newfoundland and Labrador","ISO3166-2-lvl4":"CA-NL","country":"Canada","country_code":"ca"},"population":19886,"osm_type":"node","osm_id":2437986499,"type":"city","location":[-57.947388,48.95317],"bbox":[-58.107388,48.79317,-57.787388,49.11317]}
{"name":"St. John's","other_names":{"name:ar":"سانت جونس","name:en":"St. John's","name:es":"San Juan de Terranova","name:fr":"Saint-Jean de Terre-Neuve","name:ga":"Baile Sheáin","name:pt":"São João da Terra Nova","name:ru":"Сент-Джонс","name:sr":"Сент Џонс","name:uk":"Сент-Джонс","name:ur":"سینٹ جونز","name:zh":"圣约翰斯","alt_name":"Saint John's Newfoundland","name:azb":"سنت جونز","name:ckb":"سانت جۆنس","old_name":"San Juan de Pasajes","alt_name:es":"San Juan","official_name":"City of St. John's","official_name:es":"Ciudad de San Juan de Terranova"},"display_name":"St. John's, Newfoundland, Newfoundland and Labrador, Canada","address":{"city":"St. John's","state_district":"Newfoundland","state":"Newfoundland and Labrador","ISO3166-2-lvl4":"CA-NL","country":"Canada","country_code":"ca"},"population":106170,"osm_type":"node","osm_id":236053950,"type":"city","location":[-52.7126162,47.5614705],"bbox":[-52.8726162,47.4014705,-52.5526162,47.7214705]}